,hospital_pk,collection_week,state,ccn,hospital_name,address,city,zip,hospital_subtype,fips_code,is_metro_micro,total_icu_beds_7_day_avg,icu_beds_used_7_day_avg,geocoded_hospital_address,latitude,longitude,icu_beds_used_pct_7_day_avg
2961,332006,2021/03/12,NY,332006,CALVARY HOSPITAL INC,1740 - 70 EASTCHESTER R0AD,BRONX,10461.0,Long Term,36005.0,True,0.0,0.0,POINT (-73.84404860297437 40.84823562129306),40.84823562129306,-73.84404860297437,
2962,330059,2021/03/12,NY,330059,MONTEFIORE MEDICAL CENTER,111 EAST 210TH STREET,BRONX,10467.0,Short Term,36005.0,True,206.0,183.1,POINT (-73.879975 40.879777),40.879777,-73.879975,0.8888349514563106
2963,330080,2021/03/12,NY,330080,LINCOLN MEDICAL & MENTAL HEALTH CENTER,234 EAST 149TH STREET,BRONX,10451.0,Short Term,36005.0,True,80.4,42.7,POINT (-73.924072 40.817681),40.817681,-73.924072,0.5310945273631841
2964,330009,2021/03/12,NY,330009,BRONXCARE HOSPITAL CENTER,1276 FULTON AVENUE,BRONX,10456.0,Short Term,36005.0,True,77.0,49.3,POINT (-73.903756 40.83175),40.83175,-73.903756,0.6402597402597402
2965,330399,2021/03/12,NY,330399,ST BARNABAS HOSPITAL,4422 THIRD AVENUE,BRONX,10457.0,Short Term,36005.0,True,56.0,41.0,POINT (-73.892168 40.85277),40.85277,-73.892168,0.7321428571428571
2966,330127,2021/03/12,NY,330127,JACOBI MEDICAL CENTER,1400 PELHAM PARKWAY SOUTH,BRONX,10461.0,Short Term,36005.0,True,89.0,71.3,POINT (-73.84721 40.857455),40.857455,-73.84721,0.801123595505618
2967,330385,2021/03/12,NY,330385,NORTH CENTRAL BRONX HOSPITAL,3424 KOSSUTH AVENUE & 210TH STREET,BRONX,10467.0,Short Term,36005.0,True,92.9,47.0,POINT (-73.88108250297297 40.88078958599722),40.88078958599722,-73.88108250297297,0.5059203444564047
3001,330019,2021/03/12,NY,330019,"NEW YORK COMMUNITY HOSPITAL OF BROOKLYN, INC.",2525 KINGS HIGHWAY,BROOKLYN,11229.0,Short Term,36047.0,True,19.0,18.3,POINT (-73.948321 40.613783),40.613783,-73.948321,0.9631578947368421
3002,330196,2021/03/12,NY,330196,CONEY ISLAND HOSPITAL CENTER,2601 OCEAN PARKWAY,BROOKLYN,11235.0,Short Term,36047.0,True,55.1,42.6,POINT (-73.966285 40.58494),40.58494,-73.966285,0.7731397459165155
3003,330396,2021/03/12,NY,330396,WOODHULL MEDICAL & MENTAL HEALTH CENTER,760 BROADWAY,BROOKLYN,11206.0,Short Term,36047.0,True,13.9,13.6,POINT (-73.941557 40.700512),40.700512,-73.941557,0.9784172661870503
3004,330233,2021/03/12,NY,330233,BROOKDALE HOSPITAL MEDICAL CENTER,1 BROOKDALE PLAZA,BROOKLYN,11212.0,Short Term,36047.0,True,51.9,45.9,POINT (-73.91275 40.6545),40.6545,-73.91275,0.884393063583815
3005,330236,2021/03/12,NY,330236,NEW YORK-PRESBYTERIAN BROOKLYN METHODIST HOSPITAL,506 SIXTH STREET,BROOKLYN,11215.0,Short Term,36047.0,True,75.0,55.4,POINT (-73.979141 40.668263),40.668263,-73.979141,0.7386666666666667
3006,330056,2021/03/12,NY,330056,BROOKLYN HOSPITAL CENTER - DOWNTOWN CAMPUS,121 DEKALB AVENUE,BROOKLYN,11201.0,Short Term,36047.0,True,24.0,18.9,POINT (-73.9774 40.689785),40.689785,-73.9774,0.7875
3007,330194,2021/03/12,NY,330194,MAIMONIDES MEDICAL CENTER,4802 TENTH AVENUE,BROOKLYN,11219.0,Short Term,36047.0,True,80.0,57.9,POINT (-73.998668 40.63908),40.63908,-73.998668,0.72375
3008,330202,2021/03/12,NY,330202,KINGS COUNTY HOSPITAL CENTER,451 CLARKSON AVENUE,BROOKLYN,11203.0,Short Term,36047.0,True,48.3,47.4,POINT (-73.944039 40.655773),40.655773,-73.944039,0.9813664596273293
3009,330397,2021/03/12,NY,330397,INTERFAITH MEDICAL CENTER,1545 ATLANTIC AVENUE,BROOKLYN,11213.0,Short Term,36047.0,True,23.0,19.4,POINT (-73.937154 40.677866),40.677866,-73.937154,0.8434782608695651
3010,330201,2021/03/12,NY,330201,KINGSBROOK JEWISH MEDICAL CENTER,585 SCHENECTADY AVENUE,BROOKLYN,11203.0,Short Term,36047.0,True,20.0,15.0,POINT (-73.934072 40.658929),40.658929,-73.934072,0.75
3011,330221,2021/03/12,NY,330221,WYCKOFF HEIGHTS MEDICAL CENTER,374 STOCKHOLM STREET,BROOKLYN,11237.0,Short Term,36047.0,True,28.0,20.0,POINT (-73.917648 40.704699),40.704699,-73.917648,0.7142857142857143
3012,330350,2021/03/12,NY,330350,SUNY HEALTH SCIENCE CENTER AT BROOKLYN UNIVERSITY,445 LENOX ROAD,BROOKLYN,11203.0,Short Term,36047.0,True,22.0,22.3,POINT (-73.94516 40.654457),40.654457,-73.94516,1.0136363636363637
3031,330410,2021/03/12,NY,330410,TERENCE CARDINAL COOKE HEALTH CARE CENTER,1249 FIFTH AVENUE,NEW YORK,10029.0,Short Term,36061.0,True,0.0,0.0,POINT (-73.951083 40.794298),40.794298,-73.951083,
3032,330199,2021/03/12,NY,330199,METROPOLITAN HOSPITAL CENTER,1901 FIRST AVENUE,NEW YORK,10029.0,Short Term,36061.0,True,23.0,12.9,POINT (-73.943636 40.78472),40.78472,-73.943636,0.5608695652173913
3033,330204,2021/03/12,NY,330204,BELLEVUE HOSPITAL CENTER,462 FIRST AVENUE,NEW YORK,10016.0,Short Term,36061.0,True,111.3,96.1,POINT (-73.97625 40.740079),40.740079,-73.97625,0.8634321653189577
3034,330119,2021/03/12,NY,330119,LENOX HILL HOSPITAL,100 EAST 77TH STREET,NEW YORK,10021.0,Short Term,36061.0,True,111.0,51.6,POINT (-73.960611 40.773964),40.773964,-73.960611,0.4648648648648649
3035,330154,2021/03/12,NY,330154,MEMORIAL HOSPITAL FOR CANCER AND ALLIED DISEASES,1275 YORK AVENUE,NEW YORK,10065.0,Short Term,36061.0,True,40.0,30.0,POINT (-73.955801 40.764044),40.764044,-73.955801,0.75
3037,332008,2021/03/12,NY,332008,HENRY J CARTER SPECIALTY HOSPITAL,1752 PARK AVENUE,NEW YORK,10035.0,Long Term,36061.0,True,0.0,0.0,POINT (-73.940812 40.80287),40.80287,-73.940812,
3038,330100,2021/03/12,NY,330100,N Y EYE AND EAR INFIRMARY,230 SECOND AVE,NEW YORK,10003.0,Short Term,36061.0,True,0.0,0.0,POINT (-73.984816 40.732559),40.732559,-73.984816,
3039,330024,2021/03/12,NY,330024,MOUNT SINAI HOSPITAL,ONE GUSTAVE L LEVY PLACE,NEW YORK,10029.0,Short Term,36061.0,True,258.0,135.0,POINT (-73.95293294771362 40.79025685781565),40.79025685781565,-73.95293294771362,0.5232558139534884
3040,330046,2021/03/12,NY,330046,MOUNT SINAI WEST,1000 TENTH AVENUE,NEW YORK,10019.0,Short Term,36061.0,True,76.9,67.9,POINT (-73.987846 40.770129),40.770129,-73.987846,0.88296488946684
3041,330101,2021/03/12,NY,330101,NEW YORK-PRESBYTERIAN HOSPITAL,525 EAST 68TH STREET,NEW YORK,10065.0,Short Term,36061.0,True,537.0,465.6,POINT (-73.954335 40.76415),40.76415,-73.954335,0.8670391061452515
3042,330214,2021/03/12,NY,330214,NYU LANGONE HOSPITALS,550 FIRST AVENUE,NEW YORK,10016.0,Short Term,36061.0,True,390.0,291.3,POINT (-73.974661 40.74226),40.74226,-73.974661,0.7469230769230769
3043,330240,2021/03/12,NY,330240,HARLEM HOSPITAL CENTER,506 LENOX AVENUE,NEW YORK,10037.0,Short Term,36061.0,True,29.3,24.4,POINT (-73.940495 40.814482),40.814482,-73.940495,0.8327645051194539
3044,330169,2021/03/12,NY,330169,MOUNT SINAI BETH ISRAEL,FIRST AVENUE AT 16TH STREET,NEW YORK,10003.0,Short Term,36061.0,True,61.0,51.3,POINT (-73.9816 40.732665),40.732665,-73.9816,0.840983606557377
3067,330193,2021/03/12,NY,330193,FLUSHING HOSPITAL MEDICAL CENTER,45TH AVENUE AND PARSONS BOULEVARD,FLUSHING,11355.0,Short Term,36081.0,True,36.0,27.0,POINT (-73.815645 40.755636),40.755636,-73.815645,0.75
3068,330231,2021/03/12,NY,330231,QUEENS HOSPITAL CENTER,82-68 164TH STREET,JAMAICA,11432.0,Short Term,36081.0,True,41.1,35.4,POINT (-73.803431 40.71698),40.71698,-73.803431,0.8613138686131386
3069,330014,2021/03/12,NY,330014,JAMAICA HOSPITAL MEDICAL CENTER,89TH AVENUE AND VAN WYCK EXPRESSWAY,JAMAICA,11418.0,Short Term,36081.0,True,62.0,52.6,POINT (-73.816302 40.701412),40.701412,-73.816302,0.8483870967741935
3070,330055,2021/03/12,NY,330055,NEW YORK-PRESBYTERIAN/QUEENS,56-45 MAIN STREET,FLUSHING,11355.0,Short Term,36081.0,True,113.0,59.0,POINT (-73.82525511455265 40.748180495849915),40.748180495849915,-73.82525511455265,0.5221238938053098
3071,330128,2021/03/12,NY,330128,ELMHURST HOSPITAL CENTER,79-01 BROADWAY,ELMHURST,11373.0,Short Term,36081.0,True,79.6,40.6,POINT (-73.88598 40.74434),40.74434,-73.88598,0.5100502512562815
3072,330395,2021/03/12,NY,330395,ST JOHN'S EPISCOPAL HOSPITAL AT SOUTH SHORE,327 BEACH 19TH STREET,FAR ROCKAWAY,11691.0,Short Term,36081.0,True,25.0,17.9,POINT (-73.75268 40.598675),40.598675,-73.75268,0.716
3075,330028,2021/03/12,NY,330028,RICHMOND UNIVERSITY MEDICAL CENTER,355 BARD AVENUE,STATEN ISLAND,10310.0,Short Term,36085.0,True,73.0,40.4,POINT (-74.106693 40.63551),40.63551,-74.106693,0.5534246575342465
3076,330160,2021/03/12,NY,330160,STATEN ISLAND UNIVERSITY HOSPITAL,475 SEAVIEW AVENUE,STATEN ISLAND,10305.0,Short Term,36085.0,True,107.7,101.7,POINT (-74.087013 40.584082),40.584082,-74.087013,0.9442896935933147
7980,330127,2021/03/05,NY,330127,JACOBI MEDICAL CENTER,1400 PELHAM PARKWAY SOUTH,BRONX,10461.0,Short Term,36005.0,True,89.0,69.3,POINT (-73.84721 40.857455),40.857455,-73.84721,0.7786516853932584
7981,330080,2021/03/05,NY,330080,LINCOLN MEDICAL & MENTAL HEALTH CENTER,234 EAST 149TH STREET,BRONX,10451.0,Short Term,36005.0,True,79.1,48.1,POINT (-73.924072 40.817681),40.817681,-73.924072,0.6080910240202276
7982,330009,2021/03/05,NY,330009,BRONXCARE HOSPITAL CENTER,1276 FULTON AVENUE,BRONX,10456.0,Short Term,36005.0,True,77.0,45.9,POINT (-73.903756 40.83175),40.83175,-73.903756,0.5961038961038961
7983,330399,2021/03/05,NY,330399,ST BARNABAS HOSPITAL,4422 THIRD AVENUE,BRONX,10457.0,Short Term,36005.0,True,56.0,42.4,POINT (-73.892168 40.85277),40.85277,-73.892168,0.7571428571428571
7984,330059,2021/03/05,NY,330059,MONTEFIORE MEDICAL CENTER,111 EAST 210TH STREET,BRONX,10467.0,Short Term,36005.0,True,206.0,180.6,POINT (-73.879975 40.879777),40.879777,-73.879975,0.8766990291262136
7985,332006,2021/03/05,NY,332006,CALVARY HOSPITAL INC,1740 - 70 EASTCHESTER R0AD,BRONX,10461.0,Long Term,36005.0,True,0.0,0.0,POINT (-73.84404860297437 40.84823562129306),40.84823562129306,-73.84404860297437,
7986,330385,2021/03/05,NY,330385,NORTH CENTRAL BRONX HOSPITAL,3424 KOSSUTH AVENUE & 210TH STREET,BRONX,10467.0,Short Term,36005.0,True,65.0,50.3,POINT (-73.88108250297297 40.88078958599722),40.88078958599722,-73.88108250297297,0.7738461538461539
8020,330194,2021/03/05,NY,330194,MAIMONIDES MEDICAL CENTER,4802 TENTH AVENUE,BROOKLYN,11219.0,Short Term,36047.0,True,80.0,62.3,POINT (-73.998668 40.63908),40.63908,-73.998668,0.7787499999999999
8021,330202,2021/03/05,NY,330202,KINGS COUNTY HOSPITAL CENTER,451 CLARKSON AVENUE,BROOKLYN,11203.0,Short Term,36047.0,True,54.0,54.3,POINT (-73.944039 40.655773),40.655773,-73.944039,1.0055555555555555
8022,330233,2021/03/05,NY,330233,BROOKDALE HOSPITAL MEDICAL CENTER,1 BROOKDALE PLAZA,BROOKLYN,11212.0,Short Term,36047.0,True,51.1,43.3,POINT (-73.91275 40.6545),40.6545,-73.91275,0.847358121330724
8023,330236,2021/03/05,NY,330236,NEW YORK-PRESBYTERIAN BROOKLYN METHODIST HOSPITAL,506 SIXTH STREET,BROOKLYN,11215.0,Short Term,36047.0,True,75.0,56.7,POINT (-73.979141 40.668263),40.668263,-73.979141,0.756
8024,330056,2021/03/05,NY,330056,BROOKLYN HOSPITAL CENTER - DOWNTOWN CAMPUS,121 DEKALB AVENUE,BROOKLYN,11201.0,Short Term,36047.0,True,24.0,18.4,POINT (-73.9774 40.689785),40.689785,-73.9774,0.7666666666666666
8025,330196,2021/03/05,NY,330196,CONEY ISLAND HOSPITAL CENTER,2601 OCEAN PARKWAY,BROOKLYN,11235.0,Short Term,36047.0,True,56.3,45.1,POINT (-73.966285 40.58494),40.58494,-73.966285,0.8010657193605685
8026,330396,2021/03/05,NY,330396,WOODHULL MEDICAL & MENTAL HEALTH CENTER,760 BROADWAY,BROOKLYN,11206.0,Short Term,36047.0,True,21.7,22.0,POINT (-73.941557 40.700512),40.700512,-73.941557,1.0138248847926268
8027,330350,2021/03/05,NY,330350,SUNY HEALTH SCIENCE CENTER AT BROOKLYN UNIVERSITY,445 LENOX ROAD,BROOKLYN,11203.0,Short Term,36047.0,True,23.1,24.6,POINT (-73.94516 40.654457),40.654457,-73.94516,1.0649350649350648
8028,330201,2021/03/05,NY,330201,KINGSBROOK JEWISH MEDICAL CENTER,585 SCHENECTADY AVENUE,BROOKLYN,11203.0,Short Term,36047.0,True,20.0,18.0,POINT (-73.934072 40.658929),40.658929,-73.934072,0.9
8029,330221,2021/03/05,NY,330221,WYCKOFF HEIGHTS MEDICAL CENTER,374 STOCKHOLM STREET,BROOKLYN,11237.0,Short Term,36047.0,True,28.0,20.0,POINT (-73.917648 40.704699),40.704699,-73.917648,0.7142857142857143
8030,330397,2021/03/05,NY,330397,INTERFAITH MEDICAL CENTER,1545 ATLANTIC AVENUE,BROOKLYN,11213.0,Short Term,36047.0,True,23.0,18.6,POINT (-73.937154 40.677866),40.677866,-73.937154,0.8086956521739131
8031,330019,2021/03/05,NY,330019,"NEW YORK COMMUNITY HOSPITAL OF BROOKLYN, INC.",2525 KINGS HIGHWAY,BROOKLYN,11229.0,Short Term,36047.0,True,19.0,17.6,POINT (-73.948321 40.613783),40.613783,-73.948321,0.9263157894736843
8050,330240,2021/03/05,NY,330240,HARLEM HOSPITAL CENTER,506 LENOX AVENUE,NEW YORK,10037.0,Short Term,36061.0,True,28.1,22.1,POINT (-73.940495 40.814482),40.814482,-73.940495,0.7864768683274022
8051,330119,2021/03/05,NY,330119,LENOX HILL HOSPITAL,100 EAST 77TH STREET,NEW YORK,10021.0,Short Term,36061.0,True,111.0,50.6,POINT (-73.960611 40.773964),40.773964,-73.960611,0.45585585585585586
8052,330154,2021/03/05,NY,330154,MEMORIAL HOSPITAL FOR CANCER AND ALLIED DISEASES,1275 YORK AVENUE,NEW YORK,10065.0,Short Term,36061.0,True,40.0,23.3,POINT (-73.955801 40.764044),40.764044,-73.955801,0.5825
8053,330204,2021/03/05,NY,330204,BELLEVUE HOSPITAL CENTER,462 FIRST AVENUE,NEW YORK,10016.0,Short Term,36061.0,True,119.9,99.3,POINT (-73.97625 40.740079),40.740079,-73.97625,0.8281901584653878
8054,330101,2021/03/05,NY,330101,NEW YORK-PRESBYTERIAN HOSPITAL,525 EAST 68TH STREET,NEW YORK,10065.0,Short Term,36061.0,True,535.0,466.9,POINT (-73.954335 40.76415),40.76415,-73.954335,0.8727102803738317
8055,330410,2021/03/05,NY,330410,TERENCE CARDINAL COOKE HEALTH CARE CENTER,1249 FIFTH AVENUE,NEW YORK,10029.0,Short Term,36061.0,True,0.0,0.0,POINT (-73.951083 40.794298),40.794298,-73.951083,
8056,330024,2021/03/05,NY,330024,MOUNT SINAI HOSPITAL,ONE GUSTAVE L LEVY PLACE,NEW YORK,10029.0,Short Term,36061.0,True,258.0,139.9,POINT (-73.95293294771362 40.79025685781565),40.79025685781565,-73.95293294771362,0.5422480620155039
8058,330046,2021/03/05,NY,330046,MOUNT SINAI WEST,1000 TENTH AVENUE,NEW YORK,10019.0,Short Term,36061.0,True,70.7,66.6,POINT (-73.987846 40.770129),40.770129,-73.987846,0.9420084865629419
8059,330169,2021/03/05,NY,330169,MOUNT SINAI BETH ISRAEL,FIRST AVENUE AT 16TH STREET,NEW YORK,10003.0,Short Term,36061.0,True,61.0,48.6,POINT (-73.9816 40.732665),40.732665,-73.9816,0.7967213114754098
8060,330199,2021/03/05,NY,330199,METROPOLITAN HOSPITAL CENTER,1901 FIRST AVENUE,NEW YORK,10029.0,Short Term,36061.0,True,23.0,12.6,POINT (-73.943636 40.78472),40.78472,-73.943636,0.5478260869565217
8061,330214,2021/03/05,NY,330214,NYU LANGONE HOSPITALS,550 FIRST AVENUE,NEW YORK,10016.0,Short Term,36061.0,True,400.3,297.4,POINT (-73.974661 40.74226),40.74226,-73.974661,0.742942792905321
8062,332008,2021/03/05,NY,332008,HENRY J CARTER SPECIALTY HOSPITAL,1752 PARK AVENUE,NEW YORK,10035.0,Long Term,36061.0,True,0.0,0.0,POINT (-73.940812 40.80287),40.80287,-73.940812,
8063,330100,2021/03/05,NY,330100,N Y EYE AND EAR INFIRMARY,230 SECOND AVE,NEW YORK,10003.0,Short Term,36061.0,True,0.0,0.0,POINT (-73.984816 40.732559),40.732559,-73.984816,
8086,330395,2021/03/05,NY,330395,ST JOHN'S EPISCOPAL HOSPITAL AT SOUTH SHORE,327 BEACH 19TH STREET,FAR ROCKAWAY,11691.0,Short Term,36081.0,True,25.0,15.7,POINT (-73.75268 40.598675),40.598675,-73.75268,0.628
8087,330193,2021/03/05,NY,330193,FLUSHING HOSPITAL MEDICAL CENTER,45TH AVENUE AND PARSONS BOULEVARD,FLUSHING,11355.0,Short Term,36081.0,True,36.0,23.9,POINT (-73.815645 40.755636),40.755636,-73.815645,0.6638888888888889
8088,330014,2021/03/05,NY,330014,JAMAICA HOSPITAL MEDICAL CENTER,89TH AVENUE AND VAN WYCK EXPRESSWAY,JAMAICA,11418.0,Short Term,36081.0,True,62.0,50.7,POINT (-73.816302 40.701412),40.701412,-73.816302,0.817741935483871
8089,330231,2021/03/05,NY,330231,QUEENS HOSPITAL CENTER,82-68 164TH STREET,JAMAICA,11432.0,Short Term,36081.0,True,43.1,35.7,POINT (-73.803431 40.71698),40.71698,-73.803431,0.8283062645011602
8090,330055,2021/03/05,NY,330055,NEW YORK-PRESBYTERIAN/QUEENS,56-45 MAIN STREET,FLUSHING,11355.0,Short Term,36081.0,True,113.0,58.7,POINT (-73.82525511455265 40.748180495849915),40.748180495849915,-73.82525511455265,0.5194690265486726
8091,330128,2021/03/05,NY,330128,ELMHURST HOSPITAL CENTER,79-01 BROADWAY,ELMHURST,11373.0,Short Term,36081.0,True,83.0,43.6,POINT (-73.88598 40.74434),40.74434,-73.88598,0.5253012048192771
8094,330160,2021/03/05,NY,330160,STATEN ISLAND UNIVERSITY HOSPITAL,475 SEAVIEW AVENUE,STATEN ISLAND,10305.0,Short Term,36085.0,True,107.0,97.7,POINT (-74.087013 40.584082),40.584082,-74.087013,0.9130841121495328
8095,330028,2021/03/05,NY,330028,RICHMOND UNIVERSITY MEDICAL CENTER,355 BARD AVENUE,STATEN ISLAND,10310.0,Short Term,36085.0,True,73.0,35.9,POINT (-74.106693 40.63551),40.63551,-74.106693,0.4917808219178082
12999,330009,2021/02/26,NY,330009,BRONXCARE HOSPITAL CENTER,1276 FULTON AVENUE,BRONX,10456.0,Short Term,36005.0,True,77.0,43.1,POINT (-73.903756 40.83175),40.83175,-73.903756,0.5597402597402598
13000,330127,2021/02/26,NY,330127,JACOBI MEDICAL CENTER,1400 PELHAM PARKWAY SOUTH,BRONX,10461.0,Short Term,36005.0,True,89.0,71.9,POINT (-73.84721 40.857455),40.857455,-73.84721,0.8078651685393259
13001,330385,2021/02/26,NY,330385,NORTH CENTRAL BRONX HOSPITAL,3424 KOSSUTH AVENUE & 210TH STREET,BRONX,10467.0,Short Term,36005.0,True,88.7,45.9,POINT (-73.88108250297297 40.88078958599722),40.88078958599722,-73.88108250297297,0.5174746335963923
13002,332006,2021/02/26,NY,332006,CALVARY HOSPITAL INC,1740 - 70 EASTCHESTER R0AD,BRONX,10461.0,Long Term,36005.0,True,0.0,0.0,POINT (-73.84404860297437 40.84823562129306),40.84823562129306,-73.84404860297437,
13003,330059,2021/02/26,NY,330059,MONTEFIORE MEDICAL CENTER,111 EAST 210TH STREET,BRONX,10467.0,Short Term,36005.0,True,206.0,173.7,POINT (-73.879975 40.879777),40.879777,-73.879975,0.8432038834951455
13004,330080,2021/02/26,NY,330080,LINCOLN MEDICAL & MENTAL HEALTH CENTER,234 EAST 149TH STREET,BRONX,10451.0,Short Term,36005.0,True,79.7,47.7,POINT (-73.924072 40.817681),40.817681,-73.924072,0.5984943538268507
13005,330399,2021/02/26,NY,330399,ST BARNABAS HOSPITAL,4422 THIRD AVENUE,BRONX,10457.0,Short Term,36005.0,True,56.0,41.3,POINT (-73.892168 40.85277),40.85277,-73.892168,0.7374999999999999
13039,330350,2021/02/26,NY,330350,SUNY HEALTH SCIENCE CENTER AT BROOKLYN UNIVERSITY,445 LENOX ROAD,BROOKLYN,11203.0,Short Term,36047.0,True,26.0,22.6,POINT (-73.94516 40.654457),40.654457,-73.94516,0.8692307692307693
13040,330056,2021/02/26,NY,330056,BROOKLYN HOSPITAL CENTER - DOWNTOWN CAMPUS,121 DEKALB AVENUE,BROOKLYN,11201.0,Short Term,36047.0,True,24.0,17.1,POINT (-73.9774 40.689785),40.689785,-73.9774,0.7125
13041,330201,2021/02/26,NY,330201,KINGSBROOK JEWISH MEDICAL CENTER,585 SCHENECTADY AVENUE,BROOKLYN,11203.0,Short Term,36047.0,True,20.0,17.4,POINT (-73.934072 40.658929),40.658929,-73.934072,0.8699999999999999
13042,330233,2021/02/26,NY,330233,BROOKDALE HOSPITAL MEDICAL CENTER,1 BROOKDALE PLAZA,BROOKLYN,11212.0,Short Term,36047.0,True,52.7,47.6,POINT (-73.91275 40.6545),40.6545,-73.91275,0.9032258064516129
13043,330196,2021/02/26,NY,330196,CONEY ISLAND HOSPITAL CENTER,2601 OCEAN PARKWAY,BROOKLYN,11235.0,Short Term,36047.0,True,58.0,48.3,POINT (-73.966285 40.58494),40.58494,-73.966285,0.8327586206896551
13044,330221,2021/02/26,NY,330221,WYCKOFF HEIGHTS MEDICAL CENTER,374 STOCKHOLM STREET,BROOKLYN,11237.0,Short Term,36047.0,True,28.0,19.4,POINT (-73.917648 40.704699),40.704699,-73.917648,0.6928571428571428
13045,330236,2021/02/26,NY,330236,NEW YORK-PRESBYTERIAN BROOKLYN METHODIST HOSPITAL,506 SIXTH STREET,BROOKLYN,11215.0,Short Term,36047.0,True,75.0,51.6,POINT (-73.979141 40.668263),40.668263,-73.979141,0.6880000000000001
13046,330396,2021/02/26,NY,330396,WOODHULL MEDICAL & MENTAL HEALTH CENTER,760 BROADWAY,BROOKLYN,11206.0,Short Term,36047.0,True,18.4,18.0,POINT (-73.941557 40.700512),40.700512,-73.941557,0.9782608695652175
13047,330019,2021/02/26,NY,330019,"NEW YORK COMMUNITY HOSPITAL OF BROOKLYN, INC.",2525 KINGS HIGHWAY,BROOKLYN,11229.0,Short Term,36047.0,True,19.0,17.7,POINT (-73.948321 40.613783),40.613783,-73.948321,0.9315789473684211
13048,330194,2021/02/26,NY,330194,MAIMONIDES MEDICAL CENTER,4802 TENTH AVENUE,BROOKLYN,11219.0,Short Term,36047.0,True,80.0,62.3,POINT (-73.998668 40.63908),40.63908,-73.998668,0.7787499999999999
13049,330397,2021/02/26,NY,330397,INTERFAITH MEDICAL CENTER,1545 ATLANTIC AVENUE,BROOKLYN,11213.0,Short Term,36047.0,True,23.0,15.9,POINT (-73.937154 40.677866),40.677866,-73.937154,0.691304347826087
13050,330202,2021/02/26,NY,330202,KINGS COUNTY HOSPITAL CENTER,451 CLARKSON AVENUE,BROOKLYN,11203.0,Short Term,36047.0,True,54.0,51.7,POINT (-73.944039 40.655773),40.655773,-73.944039,0.9574074074074075
13069,330240,2021/02/26,NY,330240,HARLEM HOSPITAL CENTER,506 LENOX AVENUE,NEW YORK,10037.0,Short Term,36061.0,True,32.6,25.0,POINT (-73.940495 40.814482),40.814482,-73.940495,0.7668711656441718
13070,330101,2021/02/26,NY,330101,NEW YORK-PRESBYTERIAN HOSPITAL,525 EAST 68TH STREET,NEW YORK,10065.0,Short Term,36061.0,True,535.0,469.7,POINT (-73.954335 40.76415),40.76415,-73.954335,0.8779439252336448
13071,330199,2021/02/26,NY,330199,METROPOLITAN HOSPITAL CENTER,1901 FIRST AVENUE,NEW YORK,10029.0,Short Term,36061.0,True,23.0,13.6,POINT (-73.943636 40.78472),40.78472,-73.943636,0.591304347826087
13072,330410,2021/02/26,NY,330410,TERENCE CARDINAL COOKE HEALTH CARE CENTER,1249 FIFTH AVENUE,NEW YORK,10029.0,Short Term,36061.0,True,0.0,0.0,POINT (-73.951083 40.794298),40.794298,-73.951083,
13073,330046,2021/02/26,NY,330046,MOUNT SINAI WEST,1000 TENTH AVENUE,NEW YORK,10019.0,Short Term,36061.0,True,69.6,62.6,POINT (-73.987846 40.770129),40.770129,-73.987846,0.8994252873563219
13074,330169,2021/02/26,NY,330169,MOUNT SINAI BETH ISRAEL,FIRST AVENUE AT 16TH STREET,NEW YORK,10003.0,Short Term,36061.0,True,61.0,52.9,POINT (-73.9816 40.732665),40.732665,-73.9816,0.8672131147540983
13075,330100,2021/02/26,NY,330100,N Y EYE AND EAR INFIRMARY,230 SECOND AVE,NEW YORK,10003.0,Short Term,36061.0,True,0.0,0.0,POINT (-73.984816 40.732559),40.732559,-73.984816,
13076,330119,2021/02/26,NY,330119,LENOX HILL HOSPITAL,100 EAST 77TH STREET,NEW YORK,10021.0,Short Term,36061.0,True,111.0,51.3,POINT (-73.960611 40.773964),40.773964,-73.960611,0.46216216216216216
13077,330214,2021/02/26,NY,330214,NYU LANGONE HOSPITALS,550 FIRST AVENUE,NEW YORK,10016.0,Short Term,36061.0,True,408.0,313.3,POINT (-73.974661 40.74226),40.74226,-73.974661,0.7678921568627451
13079,332008,2021/02/26,NY,332008,HENRY J CARTER SPECIALTY HOSPITAL,1752 PARK AVENUE,NEW YORK,10035.0,Long Term,36061.0,True,0.0,0.0,POINT (-73.940812 40.80287),40.80287,-73.940812,
13080,330204,2021/02/26,NY,330204,BELLEVUE HOSPITAL CENTER,462 FIRST AVENUE,NEW YORK,10016.0,Short Term,36061.0,True,111.4,92.7,POINT (-73.97625 40.740079),40.740079,-73.97625,0.8321364452423698
13081,330024,2021/02/26,NY,330024,MOUNT SINAI HOSPITAL,ONE GUSTAVE L LEVY PLACE,NEW YORK,10029.0,Short Term,36061.0,True,258.0,134.6,POINT (-73.95293294771362 40.79025685781565),40.79025685781565,-73.95293294771362,0.5217054263565891
13082,330154,2021/02/26,NY,330154,MEMORIAL HOSPITAL FOR CANCER AND ALLIED DISEASES,1275 YORK AVENUE,NEW YORK,10065.0,Short Term,36061.0,True,40.0,24.3,POINT (-73.955801 40.764044),40.764044,-73.955801,0.6075
13104,330055,2021/02/26,NY,330055,NEW YORK-PRESBYTERIAN/QUEENS,56-45 MAIN STREET,FLUSHING,11355.0,Short Term,36081.0,True,113.0,61.4,POINT (-73.82525511455265 40.748180495849915),40.748180495849915,-73.82525511455265,0.5433628318584071
13105,330128,2021/02/26,NY,330128,ELMHURST HOSPITAL CENTER,79-01 BROADWAY,ELMHURST,11373.0,Short Term,36081.0,True,83.0,44.4,POINT (-73.88598 40.74434),40.74434,-73.88598,0.5349397590361445
13106,330193,2021/02/26,NY,330193,FLUSHING HOSPITAL MEDICAL CENTER,45TH AVENUE AND PARSONS BOULEVARD,FLUSHING,11355.0,Short Term,36081.0,True,36.0,28.3,POINT (-73.815645 40.755636),40.755636,-73.815645,0.7861111111111111
13108,330395,2021/02/26,NY,330395,ST JOHN'S EPISCOPAL HOSPITAL AT SOUTH SHORE,327 BEACH 19TH STREET,FAR ROCKAWAY,11691.0,Short Term,36081.0,True,25.0,18.0,POINT (-73.75268 40.598675),40.598675,-73.75268,0.72
13109,330014,2021/02/26,NY,330014,JAMAICA HOSPITAL MEDICAL CENTER,89TH AVENUE AND VAN WYCK EXPRESSWAY,JAMAICA,11418.0,Short Term,36081.0,True,62.0,53.3,POINT (-73.816302 40.701412),40.701412,-73.816302,0.8596774193548387
13110,330231,2021/02/26,NY,330231,QUEENS HOSPITAL CENTER,82-68 164TH STREET,JAMAICA,11432.0,Short Term,36081.0,True,45.0,35.9,POINT (-73.803431 40.71698),40.71698,-73.803431,0.7977777777777777
13113,330028,2021/02/26,NY,330028,RICHMOND UNIVERSITY MEDICAL CENTER,355 BARD AVENUE,STATEN ISLAND,10310.0,Short Term,36085.0,True,73.0,32.0,POINT (-74.106693 40.63551),40.63551,-74.106693,0.4383561643835616
13114,330160,2021/02/26,NY,330160,STATEN ISLAND UNIVERSITY HOSPITAL,475 SEAVIEW AVENUE,STATEN ISLAND,10305.0,Short Term,36085.0,True,107.0,96.1,POINT (-74.087013 40.584082),40.584082,-74.087013,0.8981308411214953
18018,330385,2021/02/19,NY,330385,NORTH CENTRAL BRONX HOSPITAL,3424 KOSSUTH AVENUE & 210TH STREET,BRONX,10467.0,Short Term,36005.0,True,51.7,35.3,POINT (-73.88108250297297 40.88078958599722),40.88078958599722,-73.88108250297297,0.6827852998065763
18019,330080,2021/02/19,NY,330080,LINCOLN MEDICAL & MENTAL HEALTH CENTER,234 EAST 149TH STREET,BRONX,10451.0,Short Term,36005.0,True,77.9,48.0,POINT (-73.924072 40.817681),40.817681,-73.924072,0.6161745827984595
18020,330059,2021/02/19,NY,330059,MONTEFIORE MEDICAL CENTER,111 EAST 210TH STREET,BRONX,10467.0,Short Term,36005.0,True,206.0,176.3,POINT (-73.879975 40.879777),40.879777,-73.879975,0.8558252427184466
18021,330399,2021/02/19,NY,330399,ST BARNABAS HOSPITAL,4422 THIRD AVENUE,BRONX,10457.0,Short Term,36005.0,True,56.0,40.0,POINT (-73.892168 40.85277),40.85277,-73.892168,0.7142857142857143
18022,332006,2021/02/19,NY,332006,CALVARY HOSPITAL INC,1740 - 70 EASTCHESTER R0AD,BRONX,10461.0,Long Term,36005.0,True,0.0,0.0,POINT (-73.84404860297437 40.84823562129306),40.84823562129306,-73.84404860297437,
18023,330009,2021/02/19,NY,330009,BRONXCARE HOSPITAL CENTER,1276 FULTON AVENUE,BRONX,10456.0,Short Term,36005.0,True,77.0,45.0,POINT (-73.903756 40.83175),40.83175,-73.903756,0.5844155844155844
18024,330127,2021/02/19,NY,330127,JACOBI MEDICAL CENTER,1400 PELHAM PARKWAY SOUTH,BRONX,10461.0,Short Term,36005.0,True,96.4,73.6,POINT (-73.84721 40.857455),40.857455,-73.84721,0.7634854771784231
18058,330202,2021/02/19,NY,330202,KINGS COUNTY HOSPITAL CENTER,451 CLARKSON AVENUE,BROOKLYN,11203.0,Short Term,36047.0,True,54.0,50.7,POINT (-73.944039 40.655773),40.655773,-73.944039,0.938888888888889
18059,330236,2021/02/19,NY,330236,NEW YORK-PRESBYTERIAN BROOKLYN METHODIST HOSPITAL,506 SIXTH STREET,BROOKLYN,11215.0,Short Term,36047.0,True,75.0,51.7,POINT (-73.979141 40.668263),40.668263,-73.979141,0.6893333333333334
18060,330350,2021/02/19,NY,330350,SUNY HEALTH SCIENCE CENTER AT BROOKLYN UNIVERSITY,445 LENOX ROAD,BROOKLYN,11203.0,Short Term,36047.0,True,26.0,21.1,POINT (-73.94516 40.654457),40.654457,-73.94516,0.8115384615384615
18061,330056,2021/02/19,NY,330056,BROOKLYN HOSPITAL CENTER - DOWNTOWN CAMPUS,121 DEKALB AVENUE,BROOKLYN,11201.0,Short Term,36047.0,True,24.0,16.4,POINT (-73.9774 40.689785),40.689785,-73.9774,0.6833333333333332
18062,330196,2021/02/19,NY,330196,CONEY ISLAND HOSPITAL CENTER,2601 OCEAN PARKWAY,BROOKLYN,11235.0,Short Term,36047.0,True,56.9,43.3,POINT (-73.966285 40.58494),40.58494,-73.966285,0.7609841827768014
18063,330201,2021/02/19,NY,330201,KINGSBROOK JEWISH MEDICAL CENTER,585 SCHENECTADY AVENUE,BROOKLYN,11203.0,Short Term,36047.0,True,20.0,19.0,POINT (-73.934072 40.658929),40.658929,-73.934072,0.95
18064,330194,2021/02/19,NY,330194,MAIMONIDES MEDICAL CENTER,4802 TENTH AVENUE,BROOKLYN,11219.0,Short Term,36047.0,True,80.0,58.1,POINT (-73.998668 40.63908),40.63908,-73.998668,0.7262500000000001
18065,330396,2021/02/19,NY,330396,WOODHULL MEDICAL & MENTAL HEALTH CENTER,760 BROADWAY,BROOKLYN,11206.0,Short Term,36047.0,True,14.9,15.1,POINT (-73.941557 40.700512),40.700512,-73.941557,1.0134228187919463
18066,330019,2021/02/19,NY,330019,"NEW YORK COMMUNITY HOSPITAL OF BROOKLYN, INC.",2525 KINGS HIGHWAY,BROOKLYN,11229.0,Short Term,36047.0,True,19.0,17.4,POINT (-73.948321 40.613783),40.613783,-73.948321,0.9157894736842105
18067,330221,2021/02/19,NY,330221,WYCKOFF HEIGHTS MEDICAL CENTER,374 STOCKHOLM STREET,BROOKLYN,11237.0,Short Term,36047.0,True,28.0,20.6,POINT (-73.917648 40.704699),40.704699,-73.917648,0.7357142857142858
18068,330233,2021/02/19,NY,330233,BROOKDALE HOSPITAL MEDICAL CENTER,1 BROOKDALE PLAZA,BROOKLYN,11212.0,Short Term,36047.0,True,51.3,47.9,POINT (-73.91275 40.6545),40.6545,-73.91275,0.9337231968810916
18069,330397,2021/02/19,NY,330397,INTERFAITH MEDICAL CENTER,1545 ATLANTIC AVENUE,BROOKLYN,11213.0,Short Term,36047.0,True,23.0,14.9,POINT (-73.937154 40.677866),40.677866,-73.937154,0.6478260869565218
18088,330410,2021/02/19,NY,330410,TERENCE CARDINAL COOKE HEALTH CARE CENTER,1249 FIFTH AVENUE,NEW YORK,10029.0,Short Term,36061.0,True,0.0,0.0,POINT (-73.951083 40.794298),40.794298,-73.951083,
18089,330214,2021/02/19,NY,330214,NYU LANGONE HOSPITALS,550 FIRST AVENUE,NEW YORK,10016.0,Short Term,36061.0,True,408.0,323.3,POINT (-73.974661 40.74226),40.74226,-73.974661,0.7924019607843138
18090,330169,2021/02/19,NY,330169,MOUNT SINAI BETH ISRAEL,FIRST AVENUE AT 16TH STREET,NEW YORK,10003.0,Short Term,36061.0,True,61.0,52.0,POINT (-73.9816 40.732665),40.732665,-73.9816,0.8524590163934426
18091,330046,2021/02/19,NY,330046,MOUNT SINAI WEST,1000 TENTH AVENUE,NEW YORK,10019.0,Short Term,36061.0,True,72.4,69.4,POINT (-73.987846 40.770129),40.770129,-73.987846,0.9585635359116023
18092,330101,2021/02/19,NY,330101,NEW YORK-PRESBYTERIAN HOSPITAL,525 EAST 68TH STREET,NEW YORK,10065.0,Short Term,36061.0,True,522.9,463.4,POINT (-73.954335 40.76415),40.76415,-73.954335,0.8862115127175368
18093,330199,2021/02/19,NY,330199,METROPOLITAN HOSPITAL CENTER,1901 FIRST AVENUE,NEW YORK,10029.0,Short Term,36061.0,True,23.0,13.9,POINT (-73.943636 40.78472),40.78472,-73.943636,0.6043478260869566
18094,330204,2021/02/19,NY,330204,BELLEVUE HOSPITAL CENTER,462 FIRST AVENUE,NEW YORK,10016.0,Short Term,36061.0,True,112.0,93.1,POINT (-73.97625 40.740079),40.740079,-73.97625,0.8312499999999999
18095,330024,2021/02/19,NY,330024,MOUNT SINAI HOSPITAL,ONE GUSTAVE L LEVY PLACE,NEW YORK,10029.0,Short Term,36061.0,True,258.0,133.4,POINT (-73.95293294771362 40.79025685781565),40.79025685781565,-73.95293294771362,0.5170542635658915
18096,330119,2021/02/19,NY,330119,LENOX HILL HOSPITAL,100 EAST 77TH STREET,NEW YORK,10021.0,Short Term,36061.0,True,111.0,50.3,POINT (-73.960611 40.773964),40.773964,-73.960611,0.45315315315315313
18097,330154,2021/02/19,NY,330154,MEMORIAL HOSPITAL FOR CANCER AND ALLIED DISEASES,1275 YORK AVENUE,NEW YORK,10065.0,Short Term,36061.0,True,40.0,25.7,POINT (-73.955801 40.764044),40.764044,-73.955801,0.6425
18099,330100,2021/02/19,NY,330100,N Y EYE AND EAR INFIRMARY,230 SECOND AVE,NEW YORK,10003.0,Short Term,36061.0,True,0.0,0.0,POINT (-73.984816 40.732559),40.732559,-73.984816,
18100,330240,2021/02/19,NY,330240,HARLEM HOSPITAL CENTER,506 LENOX AVENUE,NEW YORK,10037.0,Short Term,36061.0,True,36.4,23.6,POINT (-73.940495 40.814482),40.814482,-73.940495,0.6483516483516484
18101,332008,2021/02/19,NY,332008,HENRY J CARTER SPECIALTY HOSPITAL,1752 PARK AVENUE,NEW YORK,10035.0,Long Term,36061.0,True,0.0,0.0,POINT (-73.940812 40.80287),40.80287,-73.940812,
18123,330193,2021/02/19,NY,330193,FLUSHING HOSPITAL MEDICAL CENTER,45TH AVENUE AND PARSONS BOULEVARD,FLUSHING,11355.0,Short Term,36081.0,True,36.0,26.3,POINT (-73.815645 40.755636),40.755636,-73.815645,0.7305555555555556
18124,330014,2021/02/19,NY,330014,JAMAICA HOSPITAL MEDICAL CENTER,89TH AVENUE AND VAN WYCK EXPRESSWAY,JAMAICA,11418.0,Short Term,36081.0,True,62.0,48.1,POINT (-73.816302 40.701412),40.701412,-73.816302,0.7758064516129033
18125,330128,2021/02/19,NY,330128,ELMHURST HOSPITAL CENTER,79-01 BROADWAY,ELMHURST,11373.0,Short Term,36081.0,True,83.0,42.7,POINT (-73.88598 40.74434),40.74434,-73.88598,0.5144578313253012
18126,330395,2021/02/19,NY,330395,ST JOHN'S EPISCOPAL HOSPITAL AT SOUTH SHORE,327 BEACH 19TH STREET,FAR ROCKAWAY,11691.0,Short Term,36081.0,True,25.4,22.4,POINT (-73.75268 40.598675),40.598675,-73.75268,0.8818897637795275
18127,330055,2021/02/19,NY,330055,NEW YORK-PRESBYTERIAN/QUEENS,56-45 MAIN STREET,FLUSHING,11355.0,Short Term,36081.0,True,113.0,63.1,POINT (-73.82525511455265 40.748180495849915),40.748180495849915,-73.82525511455265,0.5584070796460177
18128,330231,2021/02/19,NY,330231,QUEENS HOSPITAL CENTER,82-68 164TH STREET,JAMAICA,11432.0,Short Term,36081.0,True,39.7,30.3,POINT (-73.803431 40.71698),40.71698,-73.803431,0.7632241813602014
18132,330028,2021/02/19,NY,330028,RICHMOND UNIVERSITY MEDICAL CENTER,355 BARD AVENUE,STATEN ISLAND,10310.0,Short Term,36085.0,True,73.0,34.6,POINT (-74.106693 40.63551),40.63551,-74.106693,0.473972602739726
18133,330160,2021/02/19,NY,330160,STATEN ISLAND UNIVERSITY HOSPITAL,475 SEAVIEW AVENUE,STATEN ISLAND,10305.0,Short Term,36085.0,True,107.3,99.6,POINT (-74.087013 40.584082),40.584082,-74.087013,0.9282385834109972
23037,330059,2021/02/12,NY,330059,MONTEFIORE MEDICAL CENTER,111 EAST 210TH STREET,BRONX,10467.0,Short Term,36005.0,True,206.0,174.4,POINT (-73.879975 40.879777),40.879777,-73.879975,0.8466019417475729
23038,330385,2021/02/12,NY,330385,NORTH CENTRAL BRONX HOSPITAL,3424 KOSSUTH AVENUE & 210TH STREET,BRONX,10467.0,Short Term,36005.0,True,33.9,34.1,POINT (-73.88108250297297 40.88078958599722),40.88078958599722,-73.88108250297297,1.0058997050147493
23039,330009,2021/02/12,NY,330009,BRONXCARE HOSPITAL CENTER,1276 FULTON AVENUE,BRONX,10456.0,Short Term,36005.0,True,77.0,45.6,POINT (-73.903756 40.83175),40.83175,-73.903756,0.5922077922077922
23040,330127,2021/02/12,NY,330127,JACOBI MEDICAL CENTER,1400 PELHAM PARKWAY SOUTH,BRONX,10461.0,Short Term,36005.0,True,100.7,78.0,POINT (-73.84721 40.857455),40.857455,-73.84721,0.7745779543197616
23041,330399,2021/02/12,NY,330399,ST BARNABAS HOSPITAL,4422 THIRD AVENUE,BRONX,10457.0,Short Term,36005.0,True,56.0,41.3,POINT (-73.892168 40.85277),40.85277,-73.892168,0.7374999999999999
23042,330080,2021/02/12,NY,330080,LINCOLN MEDICAL & MENTAL HEALTH CENTER,234 EAST 149TH STREET,BRONX,10451.0,Short Term,36005.0,True,68.0,40.3,POINT (-73.924072 40.817681),40.817681,-73.924072,0.5926470588235294
23043,332006,2021/02/12,NY,332006,CALVARY HOSPITAL INC,1740 - 70 EASTCHESTER R0AD,BRONX,10461.0,Long Term,36005.0,True,32.1,0.0,POINT (-73.84404860297437 40.84823562129306),40.84823562129306,-73.84404860297437,0.0
23077,330397,2021/02/12,NY,330397,INTERFAITH MEDICAL CENTER,1545 ATLANTIC AVENUE,BROOKLYN,11213.0,Short Term,36047.0,True,23.0,17.1,POINT (-73.937154 40.677866),40.677866,-73.937154,0.7434782608695653
23078,330019,2021/02/12,NY,330019,"NEW YORK COMMUNITY HOSPITAL OF BROOKLYN, INC.",2525 KINGS HIGHWAY,BROOKLYN,11229.0,Short Term,36047.0,True,19.0,18.0,POINT (-73.948321 40.613783),40.613783,-73.948321,0.9473684210526315
23079,330236,2021/02/12,NY,330236,NEW YORK-PRESBYTERIAN BROOKLYN METHODIST HOSPITAL,506 SIXTH STREET,BROOKLYN,11215.0,Short Term,36047.0,True,75.0,56.0,POINT (-73.979141 40.668263),40.668263,-73.979141,0.7466666666666667
23080,330396,2021/02/12,NY,330396,WOODHULL MEDICAL & MENTAL HEALTH CENTER,760 BROADWAY,BROOKLYN,11206.0,Short Term,36047.0,True,24.4,24.6,POINT (-73.941557 40.700512),40.700512,-73.941557,1.0081967213114755
23081,330350,2021/02/12,NY,330350,SUNY HEALTH SCIENCE CENTER AT BROOKLYN UNIVERSITY,445 LENOX ROAD,BROOKLYN,11203.0,Short Term,36047.0,True,26.0,22.1,POINT (-73.94516 40.654457),40.654457,-73.94516,0.8500000000000001
23082,330056,2021/02/12,NY,330056,BROOKLYN HOSPITAL CENTER - DOWNTOWN CAMPUS,121 DEKALB AVENUE,BROOKLYN,11201.0,Short Term,36047.0,True,24.0,14.7,POINT (-73.9774 40.689785),40.689785,-73.9774,0.6124999999999999
23083,330196,2021/02/12,NY,330196,CONEY ISLAND HOSPITAL CENTER,2601 OCEAN PARKWAY,BROOKLYN,11235.0,Short Term,36047.0,True,54.4,45.4,POINT (-73.966285 40.58494),40.58494,-73.966285,0.8345588235294118
23084,330202,2021/02/12,NY,330202,KINGS COUNTY HOSPITAL CENTER,451 CLARKSON AVENUE,BROOKLYN,11203.0,Short Term,36047.0,True,54.0,47.6,POINT (-73.944039 40.655773),40.655773,-73.944039,0.8814814814814815
23085,330221,2021/02/12,NY,330221,WYCKOFF HEIGHTS MEDICAL CENTER,374 STOCKHOLM STREET,BROOKLYN,11237.0,Short Term,36047.0,True,28.0,19.6,POINT (-73.917648 40.704699),40.704699,-73.917648,0.7000000000000001
23086,330233,2021/02/12,NY,330233,BROOKDALE HOSPITAL MEDICAL CENTER,1 BROOKDALE PLAZA,BROOKLYN,11212.0,Short Term,36047.0,True,53.9,49.3,POINT (-73.91275 40.6545),40.6545,-73.91275,0.9146567717996289
23087,330194,2021/02/12,NY,330194,MAIMONIDES MEDICAL CENTER,4802 TENTH AVENUE,BROOKLYN,11219.0,Short Term,36047.0,True,80.0,59.1,POINT (-73.998668 40.63908),40.63908,-73.998668,0.73875
23088,330201,2021/02/12,NY,330201,KINGSBROOK JEWISH MEDICAL CENTER,585 SCHENECTADY AVENUE,BROOKLYN,11203.0,Short Term,36047.0,True,20.0,18.0,POINT (-73.934072 40.658929),40.658929,-73.934072,0.9
23107,330204,2021/02/12,NY,330204,BELLEVUE HOSPITAL CENTER,462 FIRST AVENUE,NEW YORK,10016.0,Short Term,36061.0,True,106.0,93.3,POINT (-73.97625 40.740079),40.740079,-73.97625,0.880188679245283
23108,330214,2021/02/12,NY,330214,NYU LANGONE HOSPITALS,550 FIRST AVENUE,NEW YORK,10016.0,Short Term,36061.0,True,408.0,324.0,POINT (-73.974661 40.74226),40.74226,-73.974661,0.7941176470588235
23109,330100,2021/02/12,NY,330100,N Y EYE AND EAR INFIRMARY,230 SECOND AVE,NEW YORK,10003.0,Short Term,36061.0,True,0.0,0.0,POINT (-73.984816 40.732559),40.732559,-73.984816,
23110,330169,2021/02/12,NY,330169,MOUNT SINAI BETH ISRAEL,FIRST AVENUE AT 16TH STREET,NEW YORK,10003.0,Short Term,36061.0,True,61.0,51.3,POINT (-73.9816 40.732665),40.732665,-73.9816,0.840983606557377
23111,330024,2021/02/12,NY,330024,MOUNT SINAI HOSPITAL,ONE GUSTAVE L LEVY PLACE,NEW YORK,10029.0,Short Term,36061.0,True,258.0,134.9,POINT (-73.95293294771362 40.79025685781565),40.79025685781565,-73.95293294771362,0.5228682170542636
23112,330154,2021/02/12,NY,330154,MEMORIAL HOSPITAL FOR CANCER AND ALLIED DISEASES,1275 YORK AVENUE,NEW YORK,10065.0,Short Term,36061.0,True,40.0,28.3,POINT (-73.955801 40.764044),40.764044,-73.955801,0.7075
23113,330240,2021/02/12,NY,330240,HARLEM HOSPITAL CENTER,506 LENOX AVENUE,NEW YORK,10037.0,Short Term,36061.0,True,27.3,20.6,POINT (-73.940495 40.814482),40.814482,-73.940495,0.7545787545787546
23114,330410,2021/02/12,NY,330410,TERENCE CARDINAL COOKE HEALTH CARE CENTER,1249 FIFTH AVENUE,NEW YORK,10029.0,Short Term,36061.0,True,0.0,0.0,POINT (-73.951083 40.794298),40.794298,-73.951083,
23115,330046,2021/02/12,NY,330046,MOUNT SINAI WEST,1000 TENTH AVENUE,NEW YORK,10019.0,Short Term,36061.0,True,77.3,74.4,POINT (-73.987846 40.770129),40.770129,-73.987846,0.96248382923674
23117,332008,2021/02/12,NY,332008,HENRY J CARTER SPECIALTY HOSPITAL,1752 PARK AVENUE,NEW YORK,10035.0,Long Term,36061.0,True,0.0,0.0,POINT (-73.940812 40.80287),40.80287,-73.940812,
23118,330199,2021/02/12,NY,330199,METROPOLITAN HOSPITAL CENTER,1901 FIRST AVENUE,NEW YORK,10029.0,Short Term,36061.0,True,23.0,13.0,POINT (-73.943636 40.78472),40.78472,-73.943636,0.5652173913043478
23119,330101,2021/02/12,NY,330101,NEW YORK-PRESBYTERIAN HOSPITAL,525 EAST 68TH STREET,NEW YORK,10065.0,Short Term,36061.0,True,518.7,454.3,POINT (-73.954335 40.76415),40.76415,-73.954335,0.8758434547908232
23120,330119,2021/02/12,NY,330119,LENOX HILL HOSPITAL,100 EAST 77TH STREET,NEW YORK,10021.0,Short Term,36061.0,True,111.0,55.4,POINT (-73.960611 40.773964),40.773964,-73.960611,0.4990990990990991
23142,330014,2021/02/12,NY,330014,JAMAICA HOSPITAL MEDICAL CENTER,89TH AVENUE AND VAN WYCK EXPRESSWAY,JAMAICA,11418.0,Short Term,36081.0,True,62.0,47.6,POINT (-73.816302 40.701412),40.701412,-73.816302,0.767741935483871
23143,330055,2021/02/12,NY,330055,NEW YORK-PRESBYTERIAN/QUEENS,56-45 MAIN STREET,FLUSHING,11355.0,Short Term,36081.0,True,113.0,60.0,POINT (-73.82525511455265 40.748180495849915),40.748180495849915,-73.82525511455265,0.5309734513274337
23144,330128,2021/02/12,NY,330128,ELMHURST HOSPITAL CENTER,79-01 BROADWAY,ELMHURST,11373.0,Short Term,36081.0,True,83.0,44.1,POINT (-73.88598 40.74434),40.74434,-73.88598,0.5313253012048192
23145,330193,2021/02/12,NY,330193,FLUSHING HOSPITAL MEDICAL CENTER,45TH AVENUE AND PARSONS BOULEVARD,FLUSHING,11355.0,Short Term,36081.0,True,36.0,29.7,POINT (-73.815645 40.755636),40.755636,-73.815645,0.825
23147,330231,2021/02/12,NY,330231,QUEENS HOSPITAL CENTER,82-68 164TH STREET,JAMAICA,11432.0,Short Term,36081.0,True,38.3,30.1,POINT (-73.803431 40.71698),40.71698,-73.803431,0.7859007832898173
23148,330395,2021/02/12,NY,330395,ST JOHN'S EPISCOPAL HOSPITAL AT SOUTH SHORE,327 BEACH 19TH STREET,FAR ROCKAWAY,11691.0,Short Term,36081.0,True,23.9,23.7,POINT (-73.75268 40.598675),40.598675,-73.75268,0.9916317991631799
23151,330028,2021/02/12,NY,330028,RICHMOND UNIVERSITY MEDICAL CENTER,355 BARD AVENUE,STATEN ISLAND,10310.0,Short Term,36085.0,True,73.0,33.3,POINT (-74.106693 40.63551),40.63551,-74.106693,0.4561643835616438
23152,330160,2021/02/12,NY,330160,STATEN ISLAND UNIVERSITY HOSPITAL,475 SEAVIEW AVENUE,STATEN ISLAND,10305.0,Short Term,36085.0,True,107.9,98.4,POINT (-74.087013 40.584082),40.584082,-74.087013,0.9119555143651529
28055,330127,2021/02/05,NY,330127,JACOBI MEDICAL CENTER,1400 PELHAM PARKWAY SOUTH,BRONX,10461.0,Short Term,36005.0,True,89.4,71.0,POINT (-73.84721 40.857455),40.857455,-73.84721,0.7941834451901566
28056,330399,2021/02/05,NY,330399,ST BARNABAS HOSPITAL,4422 THIRD AVENUE,BRONX,10457.0,Short Term,36005.0,True,56.0,41.4,POINT (-73.892168 40.85277),40.85277,-73.892168,0.7392857142857142
28057,330009,2021/02/05,NY,330009,BRONXCARE HOSPITAL CENTER,1276 FULTON AVENUE,BRONX,10456.0,Short Term,36005.0,True,77.0,50.1,POINT (-73.903756 40.83175),40.83175,-73.903756,0.6506493506493507
28058,330059,2021/02/05,NY,330059,MONTEFIORE MEDICAL CENTER,111 EAST 210TH STREET,BRONX,10467.0,Short Term,36005.0,True,206.0,179.1,POINT (-73.879975 40.879777),40.879777,-73.879975,0.8694174757281553
28059,332006,2021/02/05,NY,332006,CALVARY HOSPITAL INC,1740 - 70 EASTCHESTER R0AD,BRONX,10461.0,Long Term,36005.0,True,0.0,0.0,POINT (-73.84404860297437 40.84823562129306),40.84823562129306,-73.84404860297437,
28060,330080,2021/02/05,NY,330080,LINCOLN MEDICAL & MENTAL HEALTH CENTER,234 EAST 149TH STREET,BRONX,10451.0,Short Term,36005.0,True,104.9,45.1,POINT (-73.924072 40.817681),40.817681,-73.924072,0.42993326978074353
28061,330385,2021/02/05,NY,330385,NORTH CENTRAL BRONX HOSPITAL,3424 KOSSUTH AVENUE & 210TH STREET,BRONX,10467.0,Short Term,36005.0,True,28.7,23.0,POINT (-73.88108250297297 40.88078958599722),40.88078958599722,-73.88108250297297,0.8013937282229965
28095,330201,2021/02/05,NY,330201,KINGSBROOK JEWISH MEDICAL CENTER,585 SCHENECTADY AVENUE,BROOKLYN,11203.0,Short Term,36047.0,True,20.0,19.4,POINT (-73.934072 40.658929),40.658929,-73.934072,0.97
28096,330397,2021/02/05,NY,330397,INTERFAITH MEDICAL CENTER,1545 ATLANTIC AVENUE,BROOKLYN,11213.0,Short Term,36047.0,True,23.0,18.6,POINT (-73.937154 40.677866),40.677866,-73.937154,0.8086956521739131
28097,330202,2021/02/05,NY,330202,KINGS COUNTY HOSPITAL CENTER,451 CLARKSON AVENUE,BROOKLYN,11203.0,Short Term,36047.0,True,54.0,48.9,POINT (-73.944039 40.655773),40.655773,-73.944039,0.9055555555555556
28098,330221,2021/02/05,NY,330221,WYCKOFF HEIGHTS MEDICAL CENTER,374 STOCKHOLM STREET,BROOKLYN,11237.0,Short Term,36047.0,True,28.0,19.4,POINT (-73.917648 40.704699),40.704699,-73.917648,0.6928571428571428
28099,330236,2021/02/05,NY,330236,NEW YORK-PRESBYTERIAN BROOKLYN METHODIST HOSPITAL,506 SIXTH STREET,BROOKLYN,11215.0,Short Term,36047.0,True,75.0,56.7,POINT (-73.979141 40.668263),40.668263,-73.979141,0.756
28100,330194,2021/02/05,NY,330194,MAIMONIDES MEDICAL CENTER,4802 TENTH AVENUE,BROOKLYN,11219.0,Short Term,36047.0,True,80.0,56.3,POINT (-73.998668 40.63908),40.63908,-73.998668,0.70375
28101,330019,2021/02/05,NY,330019,"NEW YORK COMMUNITY HOSPITAL OF BROOKLYN, INC.",2525 KINGS HIGHWAY,BROOKLYN,11229.0,Short Term,36047.0,True,20.0,19.9,POINT (-73.948321 40.613783),40.613783,-73.948321,0.9949999999999999
28102,330196,2021/02/05,NY,330196,CONEY ISLAND HOSPITAL CENTER,2601 OCEAN PARKWAY,BROOKLYN,11235.0,Short Term,36047.0,True,56.3,50.1,POINT (-73.966285 40.58494),40.58494,-73.966285,0.8898756660746004
28103,330233,2021/02/05,NY,330233,BROOKDALE HOSPITAL MEDICAL CENTER,1 BROOKDALE PLAZA,BROOKLYN,11212.0,Short Term,36047.0,True,53.9,46.7,POINT (-73.91275 40.6545),40.6545,-73.91275,0.8664192949907237
28104,330350,2021/02/05,NY,330350,SUNY HEALTH SCIENCE CENTER AT BROOKLYN UNIVERSITY,445 LENOX ROAD,BROOKLYN,11203.0,Short Term,36047.0,True,35.7,16.0,POINT (-73.94516 40.654457),40.654457,-73.94516,0.44817927170868344
28105,330056,2021/02/05,NY,330056,BROOKLYN HOSPITAL CENTER - DOWNTOWN CAMPUS,121 DEKALB AVENUE,BROOKLYN,11201.0,Short Term,36047.0,True,24.0,16.0,POINT (-73.9774 40.689785),40.689785,-73.9774,0.6666666666666666
28106,330396,2021/02/05,NY,330396,WOODHULL MEDICAL & MENTAL HEALTH CENTER,760 BROADWAY,BROOKLYN,11206.0,Short Term,36047.0,True,15.7,17.9,POINT (-73.941557 40.700512),40.700512,-73.941557,1.1401273885350318
28125,330100,2021/02/05,NY,330100,N Y EYE AND EAR INFIRMARY,230 SECOND AVE,NEW YORK,10003.0,Short Term,36061.0,True,0.0,0.0,POINT (-73.984816 40.732559),40.732559,-73.984816,
28126,330214,2021/02/05,NY,330214,NYU LANGONE HOSPITALS,550 FIRST AVENUE,NEW YORK,10016.0,Short Term,36061.0,True,408.0,340.3,POINT (-73.974661 40.74226),40.74226,-73.974661,0.8340686274509804
28127,330154,2021/02/05,NY,330154,MEMORIAL HOSPITAL FOR CANCER AND ALLIED DISEASES,1275 YORK AVENUE,NEW YORK,10065.0,Short Term,36061.0,True,40.0,30.7,POINT (-73.955801 40.764044),40.764044,-73.955801,0.7675
28128,330410,2021/02/05,NY,330410,TERENCE CARDINAL COOKE HEALTH CARE CENTER,1249 FIFTH AVENUE,NEW YORK,10029.0,Short Term,36061.0,True,0.0,0.0,POINT (-73.951083 40.794298),40.794298,-73.951083,
28129,332008,2021/02/05,NY,332008,HENRY J CARTER SPECIALTY HOSPITAL,1752 PARK AVENUE,NEW YORK,10035.0,Long Term,36061.0,True,0.0,0.0,POINT (-73.940812 40.80287),40.80287,-73.940812,
28130,330101,2021/02/05,NY,330101,NEW YORK-PRESBYTERIAN HOSPITAL,525 EAST 68TH STREET,NEW YORK,10065.0,Short Term,36061.0,True,520.1,471.7,POINT (-73.954335 40.76415),40.76415,-73.954335,0.9069409728898288
28131,330169,2021/02/05,NY,330169,MOUNT SINAI BETH ISRAEL,FIRST AVENUE AT 16TH STREET,NEW YORK,10003.0,Short Term,36061.0,True,63.9,57.0,POINT (-73.9816 40.732665),40.732665,-73.9816,0.892018779342723
28133,330024,2021/02/05,NY,330024,MOUNT SINAI HOSPITAL,ONE GUSTAVE L LEVY PLACE,NEW YORK,10029.0,Short Term,36061.0,True,258.0,135.1,POINT (-73.95293294771362 40.79025685781565),40.79025685781565,-73.95293294771362,0.5236434108527132
28134,330046,2021/02/05,NY,330046,MOUNT SINAI WEST,1000 TENTH AVENUE,NEW YORK,10019.0,Short Term,36061.0,True,79.7,77.9,POINT (-73.987846 40.770129),40.770129,-73.987846,0.9774153074027604
28135,330119,2021/02/05,NY,330119,LENOX HILL HOSPITAL,100 EAST 77TH STREET,NEW YORK,10021.0,Short Term,36061.0,True,111.0,54.4,POINT (-73.960611 40.773964),40.773964,-73.960611,0.4900900900900901
28136,330199,2021/02/05,NY,330199,METROPOLITAN HOSPITAL CENTER,1901 FIRST AVENUE,NEW YORK,10029.0,Short Term,36061.0,True,23.0,13.0,POINT (-73.943636 40.78472),40.78472,-73.943636,0.5652173913043478
28137,330204,2021/02/05,NY,330204,BELLEVUE HOSPITAL CENTER,462 FIRST AVENUE,NEW YORK,10016.0,Short Term,36061.0,True,106.0,91.9,POINT (-73.97625 40.740079),40.740079,-73.97625,0.8669811320754718
28138,330240,2021/02/05,NY,330240,HARLEM HOSPITAL CENTER,506 LENOX AVENUE,NEW YORK,10037.0,Short Term,36061.0,True,30.0,24.6,POINT (-73.940495 40.814482),40.814482,-73.940495,0.8200000000000001
28160,330231,2021/02/05,NY,330231,QUEENS HOSPITAL CENTER,82-68 164TH STREET,JAMAICA,11432.0,Short Term,36081.0,True,38.0,27.9,POINT (-73.803431 40.71698),40.71698,-73.803431,0.7342105263157894
28161,330193,2021/02/05,NY,330193,FLUSHING HOSPITAL MEDICAL CENTER,45TH AVENUE AND PARSONS BOULEVARD,FLUSHING,11355.0,Short Term,36081.0,True,36.0,28.0,POINT (-73.815645 40.755636),40.755636,-73.815645,0.7777777777777778
28162,330395,2021/02/05,NY,330395,ST JOHN'S EPISCOPAL HOSPITAL AT SOUTH SHORE,327 BEACH 19TH STREET,FAR ROCKAWAY,11691.0,Short Term,36081.0,True,21.0,20.0,POINT (-73.75268 40.598675),40.598675,-73.75268,0.9523809523809523
28164,330014,2021/02/05,NY,330014,JAMAICA HOSPITAL MEDICAL CENTER,89TH AVENUE AND VAN WYCK EXPRESSWAY,JAMAICA,11418.0,Short Term,36081.0,True,62.0,49.4,POINT (-73.816302 40.701412),40.701412,-73.816302,0.7967741935483871
28165,330055,2021/02/05,NY,330055,NEW YORK-PRESBYTERIAN/QUEENS,56-45 MAIN STREET,FLUSHING,11355.0,Short Term,36081.0,True,113.0,59.0,POINT (-73.82525511455265 40.748180495849915),40.748180495849915,-73.82525511455265,0.5221238938053098
28166,330128,2021/02/05,NY,330128,ELMHURST HOSPITAL CENTER,79-01 BROADWAY,ELMHURST,11373.0,Short Term,36081.0,True,83.0,43.1,POINT (-73.88598 40.74434),40.74434,-73.88598,0.519277108433735
28169,330028,2021/02/05,NY,330028,RICHMOND UNIVERSITY MEDICAL CENTER,355 BARD AVENUE,STATEN ISLAND,10310.0,Short Term,36085.0,True,73.0,29.6,POINT (-74.106693 40.63551),40.63551,-74.106693,0.4054794520547945
28170,330160,2021/02/05,NY,330160,STATEN ISLAND UNIVERSITY HOSPITAL,475 SEAVIEW AVENUE,STATEN ISLAND,10305.0,Short Term,36085.0,True,107.7,103.7,POINT (-74.087013 40.584082),40.584082,-74.087013,0.9628597957288765
33074,330080,2021/01/29,NY,330080,LINCOLN MEDICAL & MENTAL HEALTH CENTER,234 EAST 149TH STREET,BRONX,10451.0,Short Term,36005.0,True,100.0,51.0,POINT (-73.924072 40.817681),40.817681,-73.924072,0.51
33075,332006,2021/01/29,NY,332006,CALVARY HOSPITAL INC,1740 - 70 EASTCHESTER R0AD,BRONX,10461.0,Long Term,36005.0,True,0.0,0.0,POINT (-73.84404860297437 40.84823562129306),40.84823562129306,-73.84404860297437,
33076,330009,2021/01/29,NY,330009,BRONXCARE HOSPITAL CENTER,1276 FULTON AVENUE,BRONX,10456.0,Short Term,36005.0,True,77.0,52.9,POINT (-73.903756 40.83175),40.83175,-73.903756,0.687012987012987
33077,330059,2021/01/29,NY,330059,MONTEFIORE MEDICAL CENTER,111 EAST 210TH STREET,BRONX,10467.0,Short Term,36005.0,True,206.0,170.3,POINT (-73.879975 40.879777),40.879777,-73.879975,0.8266990291262136
33078,330399,2021/01/29,NY,330399,ST BARNABAS HOSPITAL,4422 THIRD AVENUE,BRONX,10457.0,Short Term,36005.0,True,56.0,43.0,POINT (-73.892168 40.85277),40.85277,-73.892168,0.7678571428571429
33079,330385,2021/01/29,NY,330385,NORTH CENTRAL BRONX HOSPITAL,3424 KOSSUTH AVENUE & 210TH STREET,BRONX,10467.0,Short Term,36005.0,True,27.0,18.7,POINT (-73.88108250297297 40.88078958599722),40.88078958599722,-73.88108250297297,0.6925925925925925
33080,330127,2021/01/29,NY,330127,JACOBI MEDICAL CENTER,1400 PELHAM PARKWAY SOUTH,BRONX,10461.0,Short Term,36005.0,True,92.6,74.4,POINT (-73.84721 40.857455),40.857455,-73.84721,0.8034557235421167
33114,330350,2021/01/29,NY,330350,SUNY HEALTH SCIENCE CENTER AT BROOKLYN UNIVERSITY,445 LENOX ROAD,BROOKLYN,11203.0,Short Term,36047.0,True,60.0,20.3,POINT (-73.94516 40.654457),40.654457,-73.94516,0.3383333333333333
33115,330397,2021/01/29,NY,330397,INTERFAITH MEDICAL CENTER,1545 ATLANTIC AVENUE,BROOKLYN,11213.0,Short Term,36047.0,True,23.0,19.4,POINT (-73.937154 40.677866),40.677866,-73.937154,0.8434782608695651
33116,330233,2021/01/29,NY,330233,BROOKDALE HOSPITAL MEDICAL CENTER,1 BROOKDALE PLAZA,BROOKLYN,11212.0,Short Term,36047.0,True,52.0,50.4,POINT (-73.91275 40.6545),40.6545,-73.91275,0.9692307692307692
33117,330194,2021/01/29,NY,330194,MAIMONIDES MEDICAL CENTER,4802 TENTH AVENUE,BROOKLYN,11219.0,Short Term,36047.0,True,80.0,55.4,POINT (-73.998668 40.63908),40.63908,-73.998668,0.6925
33118,330236,2021/01/29,NY,330236,NEW YORK-PRESBYTERIAN BROOKLYN METHODIST HOSPITAL,506 SIXTH STREET,BROOKLYN,11215.0,Short Term,36047.0,True,75.0,52.7,POINT (-73.979141 40.668263),40.668263,-73.979141,0.7026666666666667
33119,330396,2021/01/29,NY,330396,WOODHULL MEDICAL & MENTAL HEALTH CENTER,760 BROADWAY,BROOKLYN,11206.0,Short Term,36047.0,True,19.3,21.0,POINT (-73.941557 40.700512),40.700512,-73.941557,1.088082901554404
33120,330201,2021/01/29,NY,330201,KINGSBROOK JEWISH MEDICAL CENTER,585 SCHENECTADY AVENUE,BROOKLYN,11203.0,Short Term,36047.0,True,20.0,19.3,POINT (-73.934072 40.658929),40.658929,-73.934072,0.9650000000000001
33121,330019,2021/01/29,NY,330019,"NEW YORK COMMUNITY HOSPITAL OF BROOKLYN, INC.",2525 KINGS HIGHWAY,BROOKLYN,11229.0,Short Term,36047.0,True,19.0,17.4,POINT (-73.948321 40.613783),40.613783,-73.948321,0.9157894736842105
33122,330221,2021/01/29,NY,330221,WYCKOFF HEIGHTS MEDICAL CENTER,374 STOCKHOLM STREET,BROOKLYN,11237.0,Short Term,36047.0,True,28.0,17.3,POINT (-73.917648 40.704699),40.704699,-73.917648,0.6178571428571429
33123,330056,2021/01/29,NY,330056,BROOKLYN HOSPITAL CENTER - DOWNTOWN CAMPUS,121 DEKALB AVENUE,BROOKLYN,11201.0,Short Term,36047.0,True,24.0,18.1,POINT (-73.9774 40.689785),40.689785,-73.9774,0.7541666666666668
33124,330196,2021/01/29,NY,330196,CONEY ISLAND HOSPITAL CENTER,2601 OCEAN PARKWAY,BROOKLYN,11235.0,Short Term,36047.0,True,55.6,48.6,POINT (-73.966285 40.58494),40.58494,-73.966285,0.8741007194244604
33125,330202,2021/01/29,NY,330202,KINGS COUNTY HOSPITAL CENTER,451 CLARKSON AVENUE,BROOKLYN,11203.0,Short Term,36047.0,True,52.9,47.7,POINT (-73.944039 40.655773),40.655773,-73.944039,0.9017013232514178
33144,330199,2021/01/29,NY,330199,METROPOLITAN HOSPITAL CENTER,1901 FIRST AVENUE,NEW YORK,10029.0,Short Term,36061.0,True,23.0,11.0,POINT (-73.943636 40.78472),40.78472,-73.943636,0.4782608695652174
33146,330169,2021/01/29,NY,330169,MOUNT SINAI BETH ISRAEL,FIRST AVENUE AT 16TH STREET,NEW YORK,10003.0,Short Term,36061.0,True,65.0,56.6,POINT (-73.9816 40.732665),40.732665,-73.9816,0.8707692307692307
33147,330101,2021/01/29,NY,330101,NEW YORK-PRESBYTERIAN HOSPITAL,525 EAST 68TH STREET,NEW YORK,10065.0,Short Term,36061.0,True,518.1,456.1,POINT (-73.954335 40.76415),40.76415,-73.954335,0.8803319822428103
33148,330410,2021/01/29,NY,330410,TERENCE CARDINAL COOKE HEALTH CARE CENTER,1249 FIFTH AVENUE,NEW YORK,10029.0,Short Term,36061.0,True,0.0,0.0,POINT (-73.951083 40.794298),40.794298,-73.951083,
33149,330240,2021/01/29,NY,330240,HARLEM HOSPITAL CENTER,506 LENOX AVENUE,NEW YORK,10037.0,Short Term,36061.0,True,33.1,23.6,POINT (-73.940495 40.814482),40.814482,-73.940495,0.7129909365558913
33150,330024,2021/01/29,NY,330024,MOUNT SINAI HOSPITAL,ONE GUSTAVE L LEVY PLACE,NEW YORK,10029.0,Short Term,36061.0,True,258.0,131.7,POINT (-73.95293294771362 40.79025685781565),40.79025685781565,-73.95293294771362,0.5104651162790698
33151,330046,2021/01/29,NY,330046,MOUNT SINAI WEST,1000 TENTH AVENUE,NEW YORK,10019.0,Short Term,36061.0,True,74.0,71.1,POINT (-73.987846 40.770129),40.770129,-73.987846,0.9608108108108108
33152,330154,2021/01/29,NY,330154,MEMORIAL HOSPITAL FOR CANCER AND ALLIED DISEASES,1275 YORK AVENUE,NEW YORK,10065.0,Short Term,36061.0,True,40.0,29.7,POINT (-73.955801 40.764044),40.764044,-73.955801,0.7424999999999999
33153,332008,2021/01/29,NY,332008,HENRY J CARTER SPECIALTY HOSPITAL,1752 PARK AVENUE,NEW YORK,10035.0,Long Term,36061.0,True,0.0,0.0,POINT (-73.940812 40.80287),40.80287,-73.940812,
33154,330214,2021/01/29,NY,330214,NYU LANGONE HOSPITALS,550 FIRST AVENUE,NEW YORK,10016.0,Short Term,36061.0,True,408.0,336.0,POINT (-73.974661 40.74226),40.74226,-73.974661,0.8235294117647058
33155,330204,2021/01/29,NY,330204,BELLEVUE HOSPITAL CENTER,462 FIRST AVENUE,NEW YORK,10016.0,Short Term,36061.0,True,104.6,92.0,POINT (-73.97625 40.740079),40.740079,-73.97625,0.8795411089866157
33156,330119,2021/01/29,NY,330119,LENOX HILL HOSPITAL,100 EAST 77TH STREET,NEW YORK,10021.0,Short Term,36061.0,True,111.0,49.1,POINT (-73.960611 40.773964),40.773964,-73.960611,0.4423423423423424
33157,330100,2021/01/29,NY,330100,N Y EYE AND EAR INFIRMARY,230 SECOND AVE,NEW YORK,10003.0,Short Term,36061.0,True,0.0,0.0,POINT (-73.984816 40.732559),40.732559,-73.984816,
33179,330014,2021/01/29,NY,330014,JAMAICA HOSPITAL MEDICAL CENTER,89TH AVENUE AND VAN WYCK EXPRESSWAY,JAMAICA,11418.0,Short Term,36081.0,True,62.0,47.3,POINT (-73.816302 40.701412),40.701412,-73.816302,0.7629032258064515
33180,330395,2021/01/29,NY,330395,ST JOHN'S EPISCOPAL HOSPITAL AT SOUTH SHORE,327 BEACH 19TH STREET,FAR ROCKAWAY,11691.0,Short Term,36081.0,True,21.0,18.1,POINT (-73.75268 40.598675),40.598675,-73.75268,0.861904761904762
33181,330055,2021/01/29,NY,330055,NEW YORK-PRESBYTERIAN/QUEENS,56-45 MAIN STREET,FLUSHING,11355.0,Short Term,36081.0,True,113.0,65.9,POINT (-73.82525511455265 40.748180495849915),40.748180495849915,-73.82525511455265,0.5831858407079646
33182,330128,2021/01/29,NY,330128,ELMHURST HOSPITAL CENTER,79-01 BROADWAY,ELMHURST,11373.0,Short Term,36081.0,True,65.9,46.0,POINT (-73.88598 40.74434),40.74434,-73.88598,0.6980273141122912
33183,330193,2021/01/29,NY,330193,FLUSHING HOSPITAL MEDICAL CENTER,45TH AVENUE AND PARSONS BOULEVARD,FLUSHING,11355.0,Short Term,36081.0,True,36.0,30.3,POINT (-73.815645 40.755636),40.755636,-73.815645,0.8416666666666667
33184,330231,2021/01/29,NY,330231,QUEENS HOSPITAL CENTER,82-68 164TH STREET,JAMAICA,11432.0,Short Term,36081.0,True,41.1,24.1,POINT (-73.803431 40.71698),40.71698,-73.803431,0.586374695863747
33188,330028,2021/01/29,NY,330028,RICHMOND UNIVERSITY MEDICAL CENTER,355 BARD AVENUE,STATEN ISLAND,10310.0,Short Term,36085.0,True,73.0,25.9,POINT (-74.106693 40.63551),40.63551,-74.106693,0.3547945205479452
33189,330160,2021/01/29,NY,330160,STATEN ISLAND UNIVERSITY HOSPITAL,475 SEAVIEW AVENUE,STATEN ISLAND,10305.0,Short Term,36085.0,True,107.9,104.0,POINT (-74.087013 40.584082),40.584082,-74.087013,0.963855421686747
38093,330080,2021/01/22,NY,330080,LINCOLN MEDICAL & MENTAL HEALTH CENTER,234 EAST 149TH STREET,BRONX,10451.0,Short Term,36005.0,True,65.1,42.4,POINT (-73.924072 40.817681),40.817681,-73.924072,0.6513056835637481
38094,332006,2021/01/22,NY,332006,CALVARY HOSPITAL INC,1740 - 70 EASTCHESTER R0AD,BRONX,10461.0,Long Term,36005.0,True,0.0,0.0,POINT (-73.84404860297437 40.84823562129306),40.84823562129306,-73.84404860297437,
38095,330399,2021/01/22,NY,330399,ST BARNABAS HOSPITAL,4422 THIRD AVENUE,BRONX,10457.0,Short Term,36005.0,True,56.0,37.6,POINT (-73.892168 40.85277),40.85277,-73.892168,0.6714285714285715
38096,330127,2021/01/22,NY,330127,JACOBI MEDICAL CENTER,1400 PELHAM PARKWAY SOUTH,BRONX,10461.0,Short Term,36005.0,True,88.9,74.6,POINT (-73.84721 40.857455),40.857455,-73.84721,0.8391451068616422
38097,330385,2021/01/22,NY,330385,NORTH CENTRAL BRONX HOSPITAL,3424 KOSSUTH AVENUE & 210TH STREET,BRONX,10467.0,Short Term,36005.0,True,27.0,21.9,POINT (-73.88108250297297 40.88078958599722),40.88078958599722,-73.88108250297297,0.811111111111111
38098,330059,2021/01/22,NY,330059,MONTEFIORE MEDICAL CENTER,111 EAST 210TH STREET,BRONX,10467.0,Short Term,36005.0,True,206.0,175.9,POINT (-73.879975 40.879777),40.879777,-73.879975,0.8538834951456311
38099,330009,2021/01/22,NY,330009,BRONXCARE HOSPITAL CENTER,1276 FULTON AVENUE,BRONX,10456.0,Short Term,36005.0,True,77.0,49.7,POINT (-73.903756 40.83175),40.83175,-73.903756,0.6454545454545455
38133,330019,2021/01/22,NY,330019,"NEW YORK COMMUNITY HOSPITAL OF BROOKLYN, INC.",2525 KINGS HIGHWAY,BROOKLYN,11229.0,Short Term,36047.0,True,19.0,16.0,POINT (-73.948321 40.613783),40.613783,-73.948321,0.8421052631578947
38134,330201,2021/01/22,NY,330201,KINGSBROOK JEWISH MEDICAL CENTER,585 SCHENECTADY AVENUE,BROOKLYN,11203.0,Short Term,36047.0,True,20.0,19.7,POINT (-73.934072 40.658929),40.658929,-73.934072,0.985
38135,330236,2021/01/22,NY,330236,NEW YORK-PRESBYTERIAN BROOKLYN METHODIST HOSPITAL,506 SIXTH STREET,BROOKLYN,11215.0,Short Term,36047.0,True,75.0,55.4,POINT (-73.979141 40.668263),40.668263,-73.979141,0.7386666666666667
38136,330396,2021/01/22,NY,330396,WOODHULL MEDICAL & MENTAL HEALTH CENTER,760 BROADWAY,BROOKLYN,11206.0,Short Term,36047.0,True,26.4,19.7,POINT (-73.941557 40.700512),40.700512,-73.941557,0.7462121212121212
38137,330202,2021/01/22,NY,330202,KINGS COUNTY HOSPITAL CENTER,451 CLARKSON AVENUE,BROOKLYN,11203.0,Short Term,36047.0,True,54.0,48.1,POINT (-73.944039 40.655773),40.655773,-73.944039,0.8907407407407407
38138,330221,2021/01/22,NY,330221,WYCKOFF HEIGHTS MEDICAL CENTER,374 STOCKHOLM STREET,BROOKLYN,11237.0,Short Term,36047.0,True,28.0,19.6,POINT (-73.917648 40.704699),40.704699,-73.917648,0.7000000000000001
38139,330196,2021/01/22,NY,330196,CONEY ISLAND HOSPITAL CENTER,2601 OCEAN PARKWAY,BROOKLYN,11235.0,Short Term,36047.0,True,52.3,47.0,POINT (-73.966285 40.58494),40.58494,-73.966285,0.8986615678776291
38140,330233,2021/01/22,NY,330233,BROOKDALE HOSPITAL MEDICAL CENTER,1 BROOKDALE PLAZA,BROOKLYN,11212.0,Short Term,36047.0,True,50.6,45.6,POINT (-73.91275 40.6545),40.6545,-73.91275,0.9011857707509882
38141,330194,2021/01/22,NY,330194,MAIMONIDES MEDICAL CENTER,4802 TENTH AVENUE,BROOKLYN,11219.0,Short Term,36047.0,True,80.0,61.6,POINT (-73.998668 40.63908),40.63908,-73.998668,0.77
38142,330397,2021/01/22,NY,330397,INTERFAITH MEDICAL CENTER,1545 ATLANTIC AVENUE,BROOKLYN,11213.0,Short Term,36047.0,True,23.0,17.0,POINT (-73.937154 40.677866),40.677866,-73.937154,0.7391304347826086
38143,330350,2021/01/22,NY,330350,SUNY HEALTH SCIENCE CENTER AT BROOKLYN UNIVERSITY,445 LENOX ROAD,BROOKLYN,11203.0,Short Term,36047.0,True,60.0,25.4,POINT (-73.94516 40.654457),40.654457,-73.94516,0.4233333333333333
38144,330056,2021/01/22,NY,330056,BROOKLYN HOSPITAL CENTER - DOWNTOWN CAMPUS,121 DEKALB AVENUE,BROOKLYN,11201.0,Short Term,36047.0,True,24.0,16.4,POINT (-73.9774 40.689785),40.689785,-73.9774,0.6833333333333332
38164,330214,2021/01/22,NY,330214,NYU LANGONE HOSPITALS,550 FIRST AVENUE,NEW YORK,10016.0,Short Term,36061.0,True,408.0,326.0,POINT (-73.974661 40.74226),40.74226,-73.974661,0.7990196078431373
38165,330410,2021/01/22,NY,330410,TERENCE CARDINAL COOKE HEALTH CARE CENTER,1249 FIFTH AVENUE,NEW YORK,10029.0,Short Term,36061.0,True,0.0,0.0,POINT (-73.951083 40.794298),40.794298,-73.951083,
38167,330024,2021/01/22,NY,330024,MOUNT SINAI HOSPITAL,ONE GUSTAVE L LEVY PLACE,NEW YORK,10029.0,Short Term,36061.0,True,258.0,129.4,POINT (-73.95293294771362 40.79025685781565),40.79025685781565,-73.95293294771362,0.5015503875968993
38168,332008,2021/01/22,NY,332008,HENRY J CARTER SPECIALTY HOSPITAL,1752 PARK AVENUE,NEW YORK,10035.0,Long Term,36061.0,True,0.0,0.0,POINT (-73.940812 40.80287),40.80287,-73.940812,
38169,330101,2021/01/22,NY,330101,NEW YORK-PRESBYTERIAN HOSPITAL,525 EAST 68TH STREET,NEW YORK,10065.0,Short Term,36061.0,True,514.0,461.0,POINT (-73.954335 40.76415),40.76415,-73.954335,0.896887159533074
38170,330240,2021/01/22,NY,330240,HARLEM HOSPITAL CENTER,506 LENOX AVENUE,NEW YORK,10037.0,Short Term,36061.0,True,29.6,24.1,POINT (-73.940495 40.814482),40.814482,-73.940495,0.8141891891891891
38171,330199,2021/01/22,NY,330199,METROPOLITAN HOSPITAL CENTER,1901 FIRST AVENUE,NEW YORK,10029.0,Short Term,36061.0,True,23.0,13.4,POINT (-73.943636 40.78472),40.78472,-73.943636,0.5826086956521739
38172,330204,2021/01/22,NY,330204,BELLEVUE HOSPITAL CENTER,462 FIRST AVENUE,NEW YORK,10016.0,Short Term,36061.0,True,106.0,90.1,POINT (-73.97625 40.740079),40.740079,-73.97625,0.85
38173,330119,2021/01/22,NY,330119,LENOX HILL HOSPITAL,100 EAST 77TH STREET,NEW YORK,10021.0,Short Term,36061.0,True,111.0,50.1,POINT (-73.960611 40.773964),40.773964,-73.960611,0.45135135135135135
38174,330169,2021/01/22,NY,330169,MOUNT SINAI BETH ISRAEL,FIRST AVENUE AT 16TH STREET,NEW YORK,10003.0,Short Term,36061.0,True,65.0,52.0,POINT (-73.9816 40.732665),40.732665,-73.9816,0.8
38175,330046,2021/01/22,NY,330046,MOUNT SINAI WEST,1000 TENTH AVENUE,NEW YORK,10019.0,Short Term,36061.0,True,74.7,70.3,POINT (-73.987846 40.770129),40.770129,-73.987846,0.9410977242302543
38176,330154,2021/01/22,NY,330154,MEMORIAL HOSPITAL FOR CANCER AND ALLIED DISEASES,1275 YORK AVENUE,NEW YORK,10065.0,Short Term,36061.0,True,40.0,26.6,POINT (-73.955801 40.764044),40.764044,-73.955801,0.665
38198,330055,2021/01/22,NY,330055,NEW YORK-PRESBYTERIAN/QUEENS,56-45 MAIN STREET,FLUSHING,11355.0,Short Term,36081.0,True,113.0,63.6,POINT (-73.82525511455265 40.748180495849915),40.748180495849915,-73.82525511455265,0.5628318584070796
38200,330193,2021/01/22,NY,330193,FLUSHING HOSPITAL MEDICAL CENTER,45TH AVENUE AND PARSONS BOULEVARD,FLUSHING,11355.0,Short Term,36081.0,True,36.0,27.6,POINT (-73.815645 40.755636),40.755636,-73.815645,0.7666666666666667
38201,330128,2021/01/22,NY,330128,ELMHURST HOSPITAL CENTER,79-01 BROADWAY,ELMHURST,11373.0,Short Term,36081.0,True,58.3,42.4,POINT (-73.88598 40.74434),40.74434,-73.88598,0.7272727272727273
38202,330395,2021/01/22,NY,330395,ST JOHN'S EPISCOPAL HOSPITAL AT SOUTH SHORE,327 BEACH 19TH STREET,FAR ROCKAWAY,11691.0,Short Term,36081.0,True,21.0,15.6,POINT (-73.75268 40.598675),40.598675,-73.75268,0.7428571428571429
38203,330014,2021/01/22,NY,330014,JAMAICA HOSPITAL MEDICAL CENTER,89TH AVENUE AND VAN WYCK EXPRESSWAY,JAMAICA,11418.0,Short Term,36081.0,True,47.0,39.6,POINT (-73.816302 40.701412),40.701412,-73.816302,0.8425531914893617
38204,330231,2021/01/22,NY,330231,QUEENS HOSPITAL CENTER,82-68 164TH STREET,JAMAICA,11432.0,Short Term,36081.0,True,45.4,25.1,POINT (-73.803431 40.71698),40.71698,-73.803431,0.5528634361233481
38207,330028,2021/01/22,NY,330028,RICHMOND UNIVERSITY MEDICAL CENTER,355 BARD AVENUE,STATEN ISLAND,10310.0,Short Term,36085.0,True,73.0,31.0,POINT (-74.106693 40.63551),40.63551,-74.106693,0.4246575342465753
38208,330160,2021/01/22,NY,330160,STATEN ISLAND UNIVERSITY HOSPITAL,475 SEAVIEW AVENUE,STATEN ISLAND,10305.0,Short Term,36085.0,True,107.1,99.3,POINT (-74.087013 40.584082),40.584082,-74.087013,0.927170868347339
43111,330009,2021/01/15,NY,330009,BRONXCARE HOSPITAL CENTER,1276 FULTON AVENUE,BRONX,10456.0,Short Term,36005.0,True,77.0,50.1,POINT (-73.903756 40.83175),40.83175,-73.903756,0.6506493506493507
43112,330385,2021/01/15,NY,330385,NORTH CENTRAL BRONX HOSPITAL,3424 KOSSUTH AVENUE & 210TH STREET,BRONX,10467.0,Short Term,36005.0,True,42.4,18.0,POINT (-73.88108250297297 40.88078958599722),40.88078958599722,-73.88108250297297,0.42452830188679247
43113,330059,2021/01/15,NY,330059,MONTEFIORE MEDICAL CENTER,111 EAST 210TH STREET,BRONX,10467.0,Short Term,36005.0,True,206.0,171.0,POINT (-73.879975 40.879777),40.879777,-73.879975,0.8300970873786407
43114,332006,2021/01/15,NY,332006,CALVARY HOSPITAL INC,1740 - 70 EASTCHESTER R0AD,BRONX,10461.0,Long Term,36005.0,True,0.0,0.0,POINT (-73.84404860297437 40.84823562129306),40.84823562129306,-73.84404860297437,
43115,330080,2021/01/15,NY,330080,LINCOLN MEDICAL & MENTAL HEALTH CENTER,234 EAST 149TH STREET,BRONX,10451.0,Short Term,36005.0,True,67.0,46.3,POINT (-73.924072 40.817681),40.817681,-73.924072,0.691044776119403
43116,330399,2021/01/15,NY,330399,ST BARNABAS HOSPITAL,4422 THIRD AVENUE,BRONX,10457.0,Short Term,36005.0,True,56.0,37.4,POINT (-73.892168 40.85277),40.85277,-73.892168,0.6678571428571428
43117,330127,2021/01/15,NY,330127,JACOBI MEDICAL CENTER,1400 PELHAM PARKWAY SOUTH,BRONX,10461.0,Short Term,36005.0,True,97.0,72.6,POINT (-73.84721 40.857455),40.857455,-73.84721,0.7484536082474226
43151,330397,2021/01/15,NY,330397,INTERFAITH MEDICAL CENTER,1545 ATLANTIC AVENUE,BROOKLYN,11213.0,Short Term,36047.0,True,21.6,13.0,POINT (-73.937154 40.677866),40.677866,-73.937154,0.6018518518518519
43152,330202,2021/01/15,NY,330202,KINGS COUNTY HOSPITAL CENTER,451 CLARKSON AVENUE,BROOKLYN,11203.0,Short Term,36047.0,True,54.0,53.1,POINT (-73.944039 40.655773),40.655773,-73.944039,0.9833333333333334
43153,330396,2021/01/15,NY,330396,WOODHULL MEDICAL & MENTAL HEALTH CENTER,760 BROADWAY,BROOKLYN,11206.0,Short Term,36047.0,True,20.6,20.1,POINT (-73.941557 40.700512),40.700512,-73.941557,0.9757281553398058
43154,330201,2021/01/15,NY,330201,KINGSBROOK JEWISH MEDICAL CENTER,585 SCHENECTADY AVENUE,BROOKLYN,11203.0,Short Term,36047.0,True,20.0,18.9,POINT (-73.934072 40.658929),40.658929,-73.934072,0.945
43155,330019,2021/01/15,NY,330019,"NEW YORK COMMUNITY HOSPITAL OF BROOKLYN, INC.",2525 KINGS HIGHWAY,BROOKLYN,11229.0,Short Term,36047.0,True,19.0,17.0,POINT (-73.948321 40.613783),40.613783,-73.948321,0.8947368421052632
43156,330196,2021/01/15,NY,330196,CONEY ISLAND HOSPITAL CENTER,2601 OCEAN PARKWAY,BROOKLYN,11235.0,Short Term,36047.0,True,51.0,46.1,POINT (-73.966285 40.58494),40.58494,-73.966285,0.903921568627451
43157,330236,2021/01/15,NY,330236,NEW YORK-PRESBYTERIAN BROOKLYN METHODIST HOSPITAL,506 SIXTH STREET,BROOKLYN,11215.0,Short Term,36047.0,True,75.0,55.9,POINT (-73.979141 40.668263),40.668263,-73.979141,0.7453333333333333
43158,330221,2021/01/15,NY,330221,WYCKOFF HEIGHTS MEDICAL CENTER,374 STOCKHOLM STREET,BROOKLYN,11237.0,Short Term,36047.0,True,28.0,22.9,POINT (-73.917648 40.704699),40.704699,-73.917648,0.8178571428571428
43159,330350,2021/01/15,NY,330350,SUNY HEALTH SCIENCE CENTER AT BROOKLYN UNIVERSITY,445 LENOX ROAD,BROOKLYN,11203.0,Short Term,36047.0,True,60.0,25.3,POINT (-73.94516 40.654457),40.654457,-73.94516,0.4216666666666667
43160,330194,2021/01/15,NY,330194,MAIMONIDES MEDICAL CENTER,4802 TENTH AVENUE,BROOKLYN,11219.0,Short Term,36047.0,True,80.0,61.6,POINT (-73.998668 40.63908),40.63908,-73.998668,0.77
43161,330056,2021/01/15,NY,330056,BROOKLYN HOSPITAL CENTER - DOWNTOWN CAMPUS,121 DEKALB AVENUE,BROOKLYN,11201.0,Short Term,36047.0,True,24.0,11.1,POINT (-73.9774 40.689785),40.689785,-73.9774,0.46249999999999997
43162,330233,2021/01/15,NY,330233,BROOKDALE HOSPITAL MEDICAL CENTER,1 BROOKDALE PLAZA,BROOKLYN,11212.0,Short Term,36047.0,True,50.7,45.1,POINT (-73.91275 40.6545),40.6545,-73.91275,0.8895463510848126
43181,330410,2021/01/15,NY,330410,TERENCE CARDINAL COOKE HEALTH CARE CENTER,1249 FIFTH AVENUE,NEW YORK,10029.0,Short Term,36061.0,True,0.0,0.0,POINT (-73.951083 40.794298),40.794298,-73.951083,
43182,330024,2021/01/15,NY,330024,MOUNT SINAI HOSPITAL,ONE GUSTAVE L LEVY PLACE,NEW YORK,10029.0,Short Term,36061.0,True,258.0,125.7,POINT (-73.95293294771362 40.79025685781565),40.79025685781565,-73.95293294771362,0.4872093023255814
43183,330240,2021/01/15,NY,330240,HARLEM HOSPITAL CENTER,506 LENOX AVENUE,NEW YORK,10037.0,Short Term,36061.0,True,32.1,23.6,POINT (-73.940495 40.814482),40.814482,-73.940495,0.735202492211838
43184,330204,2021/01/15,NY,330204,BELLEVUE HOSPITAL CENTER,462 FIRST AVENUE,NEW YORK,10016.0,Short Term,36061.0,True,106.0,89.4,POINT (-73.97625 40.740079),40.740079,-73.97625,0.8433962264150944
43185,330214,2021/01/15,NY,330214,NYU LANGONE HOSPITALS,550 FIRST AVENUE,NEW YORK,10016.0,Short Term,36061.0,True,395.1,301.3,POINT (-73.974661 40.74226),40.74226,-73.974661,0.7625917489243229
43186,330119,2021/01/15,NY,330119,LENOX HILL HOSPITAL,100 EAST 77TH STREET,NEW YORK,10021.0,Short Term,36061.0,True,111.0,49.0,POINT (-73.960611 40.773964),40.773964,-73.960611,0.44144144144144143
43187,330100,2021/01/15,NY,330100,N Y EYE AND EAR INFIRMARY,230 SECOND AVE,NEW YORK,10003.0,Short Term,36061.0,True,0.0,0.0,POINT (-73.984816 40.732559),40.732559,-73.984816,
43188,330101,2021/01/15,NY,330101,NEW YORK-PRESBYTERIAN HOSPITAL,525 EAST 68TH STREET,NEW YORK,10065.0,Short Term,36061.0,True,503.3,452.1,POINT (-73.954335 40.76415),40.76415,-73.954335,0.8982714087025631
43190,330199,2021/01/15,NY,330199,METROPOLITAN HOSPITAL CENTER,1901 FIRST AVENUE,NEW YORK,10029.0,Short Term,36061.0,True,23.0,12.3,POINT (-73.943636 40.78472),40.78472,-73.943636,0.5347826086956522
43191,330169,2021/01/15,NY,330169,MOUNT SINAI BETH ISRAEL,FIRST AVENUE AT 16TH STREET,NEW YORK,10003.0,Short Term,36061.0,True,65.0,50.6,POINT (-73.9816 40.732665),40.732665,-73.9816,0.7784615384615385
43192,330046,2021/01/15,NY,330046,MOUNT SINAI WEST,1000 TENTH AVENUE,NEW YORK,10019.0,Short Term,36061.0,True,69.7,65.7,POINT (-73.987846 40.770129),40.770129,-73.987846,0.9426111908177905
43193,332008,2021/01/15,NY,332008,HENRY J CARTER SPECIALTY HOSPITAL,1752 PARK AVENUE,NEW YORK,10035.0,Long Term,36061.0,True,0.0,0.0,POINT (-73.940812 40.80287),40.80287,-73.940812,
43194,330154,2021/01/15,NY,330154,MEMORIAL HOSPITAL FOR CANCER AND ALLIED DISEASES,1275 YORK AVENUE,NEW YORK,10065.0,Short Term,36061.0,True,40.0,24.3,POINT (-73.955801 40.764044),40.764044,-73.955801,0.6075
43216,330193,2021/01/15,NY,330193,FLUSHING HOSPITAL MEDICAL CENTER,45TH AVENUE AND PARSONS BOULEVARD,FLUSHING,11355.0,Short Term,36081.0,True,36.0,25.1,POINT (-73.815645 40.755636),40.755636,-73.815645,0.6972222222222223
43217,330055,2021/01/15,NY,330055,NEW YORK-PRESBYTERIAN/QUEENS,56-45 MAIN STREET,FLUSHING,11355.0,Short Term,36081.0,True,113.0,55.0,POINT (-73.82525511455265 40.748180495849915),40.748180495849915,-73.82525511455265,0.48672566371681414
43218,330395,2021/01/15,NY,330395,ST JOHN'S EPISCOPAL HOSPITAL AT SOUTH SHORE,327 BEACH 19TH STREET,FAR ROCKAWAY,11691.0,Short Term,36081.0,True,21.0,13.6,POINT (-73.75268 40.598675),40.598675,-73.75268,0.6476190476190476
43219,330014,2021/01/15,NY,330014,JAMAICA HOSPITAL MEDICAL CENTER,89TH AVENUE AND VAN WYCK EXPRESSWAY,JAMAICA,11418.0,Short Term,36081.0,True,47.0,34.4,POINT (-73.816302 40.701412),40.701412,-73.816302,0.7319148936170212
43221,330231,2021/01/15,NY,330231,QUEENS HOSPITAL CENTER,82-68 164TH STREET,JAMAICA,11432.0,Short Term,36081.0,True,53.0,27.6,POINT (-73.803431 40.71698),40.71698,-73.803431,0.5207547169811321
43222,330128,2021/01/15,NY,330128,ELMHURST HOSPITAL CENTER,79-01 BROADWAY,ELMHURST,11373.0,Short Term,36081.0,True,85.1,43.6,POINT (-73.88598 40.74434),40.74434,-73.88598,0.5123384253819037
43225,330028,2021/01/15,NY,330028,RICHMOND UNIVERSITY MEDICAL CENTER,355 BARD AVENUE,STATEN ISLAND,10310.0,Short Term,36085.0,True,73.0,35.6,POINT (-74.106693 40.63551),40.63551,-74.106693,0.4876712328767123
43226,330160,2021/01/15,NY,330160,STATEN ISLAND UNIVERSITY HOSPITAL,475 SEAVIEW AVENUE,STATEN ISLAND,10305.0,Short Term,36085.0,True,108.6,102.0,POINT (-74.087013 40.584082),40.584082,-74.087013,0.9392265193370166
48127,330080,2021/01/08,NY,330080,LINCOLN MEDICAL & MENTAL HEALTH CENTER,234 EAST 149TH STREET,BRONX,10451.0,Short Term,36005.0,True,67.0,42.6,POINT (-73.924072 40.817681),40.817681,-73.924072,0.6358208955223881
48128,332006,2021/01/08,NY,332006,CALVARY HOSPITAL INC,1740 - 70 EASTCHESTER R0AD,BRONX,10461.0,Long Term,36005.0,True,0.0,0.0,POINT (-73.84404860297437 40.84823562129306),40.84823562129306,-73.84404860297437,
48129,330009,2021/01/08,NY,330009,BRONXCARE HOSPITAL CENTER,1276 FULTON AVENUE,BRONX,10456.0,Short Term,36005.0,True,77.0,47.7,POINT (-73.903756 40.83175),40.83175,-73.903756,0.6194805194805195
48130,330399,2021/01/08,NY,330399,ST BARNABAS HOSPITAL,4422 THIRD AVENUE,BRONX,10457.0,Short Term,36005.0,True,56.0,34.7,POINT (-73.892168 40.85277),40.85277,-73.892168,0.6196428571428572
48131,330059,2021/01/08,NY,330059,MONTEFIORE MEDICAL CENTER,111 EAST 210TH STREET,BRONX,10467.0,Short Term,36005.0,True,208.6,178.9,POINT (-73.879975 40.879777),40.879777,-73.879975,0.8576222435282839
48132,330127,2021/01/08,NY,330127,JACOBI MEDICAL CENTER,1400 PELHAM PARKWAY SOUTH,BRONX,10461.0,Short Term,36005.0,True,97.0,67.9,POINT (-73.84721 40.857455),40.857455,-73.84721,0.7000000000000001
48133,330385,2021/01/08,NY,330385,NORTH CENTRAL BRONX HOSPITAL,3424 KOSSUTH AVENUE & 210TH STREET,BRONX,10467.0,Short Term,36005.0,True,54.0,18.1,POINT (-73.88108250297297 40.88078958599722),40.88078958599722,-73.88108250297297,0.3351851851851852
48167,330196,2021/01/08,NY,330196,CONEY ISLAND HOSPITAL CENTER,2601 OCEAN PARKWAY,BROOKLYN,11235.0,Short Term,36047.0,True,48.6,40.1,POINT (-73.966285 40.58494),40.58494,-73.966285,0.8251028806584362
48168,330233,2021/01/08,NY,330233,BROOKDALE HOSPITAL MEDICAL CENTER,1 BROOKDALE PLAZA,BROOKLYN,11212.0,Short Term,36047.0,True,50.4,43.1,POINT (-73.91275 40.6545),40.6545,-73.91275,0.8551587301587302
48169,330019,2021/01/08,NY,330019,"NEW YORK COMMUNITY HOSPITAL OF BROOKLYN, INC.",2525 KINGS HIGHWAY,BROOKLYN,11229.0,Short Term,36047.0,True,19.0,16.1,POINT (-73.948321 40.613783),40.613783,-73.948321,0.8473684210526317
48170,330397,2021/01/08,NY,330397,INTERFAITH MEDICAL CENTER,1545 ATLANTIC AVENUE,BROOKLYN,11213.0,Short Term,36047.0,True,13.0,12.1,POINT (-73.937154 40.677866),40.677866,-73.937154,0.9307692307692308
48171,330221,2021/01/08,NY,330221,WYCKOFF HEIGHTS MEDICAL CENTER,374 STOCKHOLM STREET,BROOKLYN,11237.0,Short Term,36047.0,True,24.6,18.6,POINT (-73.917648 40.704699),40.704699,-73.917648,0.7560975609756098
48172,330350,2021/01/08,NY,330350,SUNY HEALTH SCIENCE CENTER AT BROOKLYN UNIVERSITY,445 LENOX ROAD,BROOKLYN,11203.0,Short Term,36047.0,True,60.0,22.1,POINT (-73.94516 40.654457),40.654457,-73.94516,0.36833333333333335
48173,330201,2021/01/08,NY,330201,KINGSBROOK JEWISH MEDICAL CENTER,585 SCHENECTADY AVENUE,BROOKLYN,11203.0,Short Term,36047.0,True,20.0,16.7,POINT (-73.934072 40.658929),40.658929,-73.934072,0.835
48174,330396,2021/01/08,NY,330396,WOODHULL MEDICAL & MENTAL HEALTH CENTER,760 BROADWAY,BROOKLYN,11206.0,Short Term,36047.0,True,29.9,23.1,POINT (-73.941557 40.700512),40.700512,-73.941557,0.7725752508361204
48175,330194,2021/01/08,NY,330194,MAIMONIDES MEDICAL CENTER,4802 TENTH AVENUE,BROOKLYN,11219.0,Short Term,36047.0,True,79.4,61.0,POINT (-73.998668 40.63908),40.63908,-73.998668,0.7682619647355163
48176,330236,2021/01/08,NY,330236,NEW YORK-PRESBYTERIAN BROOKLYN METHODIST HOSPITAL,506 SIXTH STREET,BROOKLYN,11215.0,Short Term,36047.0,True,75.6,58.3,POINT (-73.979141 40.668263),40.668263,-73.979141,0.7711640211640212
48177,330056,2021/01/08,NY,330056,BROOKLYN HOSPITAL CENTER - DOWNTOWN CAMPUS,121 DEKALB AVENUE,BROOKLYN,11201.0,Short Term,36047.0,True,24.0,16.9,POINT (-73.9774 40.689785),40.689785,-73.9774,0.7041666666666666
48178,330202,2021/01/08,NY,330202,KINGS COUNTY HOSPITAL CENTER,451 CLARKSON AVENUE,BROOKLYN,11203.0,Short Term,36047.0,True,54.0,49.4,POINT (-73.944039 40.655773),40.655773,-73.944039,0.9148148148148147
48197,330199,2021/01/08,NY,330199,METROPOLITAN HOSPITAL CENTER,1901 FIRST AVENUE,NEW YORK,10029.0,Short Term,36061.0,True,23.0,15.7,POINT (-73.943636 40.78472),40.78472,-73.943636,0.6826086956521739
48198,330100,2021/01/08,NY,330100,N Y EYE AND EAR INFIRMARY,230 SECOND AVE,NEW YORK,10003.0,Short Term,36061.0,True,0.0,0.0,POINT (-73.984816 40.732559),40.732559,-73.984816,
48199,330214,2021/01/08,NY,330214,NYU LANGONE HOSPITALS,550 FIRST AVENUE,NEW YORK,10016.0,Short Term,36061.0,True,390.0,303.3,POINT (-73.974661 40.74226),40.74226,-73.974661,0.7776923076923077
48200,330410,2021/01/08,NY,330410,TERENCE CARDINAL COOKE HEALTH CARE CENTER,1249 FIFTH AVENUE,NEW YORK,10029.0,Short Term,36061.0,True,0.0,0.0,POINT (-73.951083 40.794298),40.794298,-73.951083,
48201,330204,2021/01/08,NY,330204,BELLEVUE HOSPITAL CENTER,462 FIRST AVENUE,NEW YORK,10016.0,Short Term,36061.0,True,106.0,85.6,POINT (-73.97625 40.740079),40.740079,-73.97625,0.8075471698113207
48203,330154,2021/01/08,NY,330154,MEMORIAL HOSPITAL FOR CANCER AND ALLIED DISEASES,1275 YORK AVENUE,NEW YORK,10065.0,Short Term,36061.0,True,40.0,28.4,POINT (-73.955801 40.764044),40.764044,-73.955801,0.71
48204,332008,2021/01/08,NY,332008,HENRY J CARTER SPECIALTY HOSPITAL,1752 PARK AVENUE,NEW YORK,10035.0,Long Term,36061.0,True,0.0,0.0,POINT (-73.940812 40.80287),40.80287,-73.940812,
48205,330101,2021/01/08,NY,330101,NEW YORK-PRESBYTERIAN HOSPITAL,525 EAST 68TH STREET,NEW YORK,10065.0,Short Term,36061.0,True,503.0,441.9,POINT (-73.954335 40.76415),40.76415,-73.954335,0.8785288270377734
48206,330024,2021/01/08,NY,330024,MOUNT SINAI HOSPITAL,ONE GUSTAVE L LEVY PLACE,NEW YORK,10029.0,Short Term,36061.0,True,258.0,131.7,POINT (-73.95293294771362 40.79025685781565),40.79025685781565,-73.95293294771362,0.5104651162790698
48207,330046,2021/01/08,NY,330046,MOUNT SINAI WEST,1000 TENTH AVENUE,NEW YORK,10019.0,Short Term,36061.0,True,71.4,67.9,POINT (-73.987846 40.770129),40.770129,-73.987846,0.9509803921568627
48208,330240,2021/01/08,NY,330240,HARLEM HOSPITAL CENTER,506 LENOX AVENUE,NEW YORK,10037.0,Short Term,36061.0,True,32.4,24.7,POINT (-73.940495 40.814482),40.814482,-73.940495,0.7623456790123457
48209,330119,2021/01/08,NY,330119,LENOX HILL HOSPITAL,100 EAST 77TH STREET,NEW YORK,10021.0,Short Term,36061.0,True,111.0,47.4,POINT (-73.960611 40.773964),40.773964,-73.960611,0.427027027027027
48210,330169,2021/01/08,NY,330169,MOUNT SINAI BETH ISRAEL,FIRST AVENUE AT 16TH STREET,NEW YORK,10003.0,Short Term,36061.0,True,65.0,51.1,POINT (-73.9816 40.732665),40.732665,-73.9816,0.7861538461538462
48232,330193,2021/01/08,NY,330193,FLUSHING HOSPITAL MEDICAL CENTER,45TH AVENUE AND PARSONS BOULEVARD,FLUSHING,11355.0,Short Term,36081.0,True,36.0,25.3,POINT (-73.815645 40.755636),40.755636,-73.815645,0.7027777777777778
48233,330014,2021/01/08,NY,330014,JAMAICA HOSPITAL MEDICAL CENTER,89TH AVENUE AND VAN WYCK EXPRESSWAY,JAMAICA,11418.0,Short Term,36081.0,True,47.0,40.4,POINT (-73.816302 40.701412),40.701412,-73.816302,0.8595744680851064
48234,330395,2021/01/08,NY,330395,ST JOHN'S EPISCOPAL HOSPITAL AT SOUTH SHORE,327 BEACH 19TH STREET,FAR ROCKAWAY,11691.0,Short Term,36081.0,True,21.0,14.7,POINT (-73.75268 40.598675),40.598675,-73.75268,0.7
48235,330128,2021/01/08,NY,330128,ELMHURST HOSPITAL CENTER,79-01 BROADWAY,ELMHURST,11373.0,Short Term,36081.0,True,83.0,41.9,POINT (-73.88598 40.74434),40.74434,-73.88598,0.5048192771084338
48236,330231,2021/01/08,NY,330231,QUEENS HOSPITAL CENTER,82-68 164TH STREET,JAMAICA,11432.0,Short Term,36081.0,True,53.0,30.6,POINT (-73.803431 40.71698),40.71698,-73.803431,0.5773584905660377
48237,330055,2021/01/08,NY,330055,NEW YORK-PRESBYTERIAN/QUEENS,56-45 MAIN STREET,FLUSHING,11355.0,Short Term,36081.0,True,113.0,43.9,POINT (-73.82525511455265 40.748180495849915),40.748180495849915,-73.82525511455265,0.3884955752212389
48240,330028,2021/01/08,NY,330028,RICHMOND UNIVERSITY MEDICAL CENTER,355 BARD AVENUE,STATEN ISLAND,10310.0,Short Term,36085.0,True,73.0,35.0,POINT (-74.106693 40.63551),40.63551,-74.106693,0.4794520547945205
48241,330160,2021/01/08,NY,330160,STATEN ISLAND UNIVERSITY HOSPITAL,475 SEAVIEW AVENUE,STATEN ISLAND,10305.0,Short Term,36085.0,True,107.4,101.0,POINT (-74.087013 40.584082),40.584082,-74.087013,0.9404096834264432
53145,330127,2021/01/01,NY,330127,JACOBI MEDICAL CENTER,1400 PELHAM PARKWAY SOUTH,BRONX,10461.0,Short Term,36005.0,True,97.0,73.9,POINT (-73.84721 40.857455),40.857455,-73.84721,0.7618556701030929
53146,330399,2021/01/01,NY,330399,ST BARNABAS HOSPITAL,4422 THIRD AVENUE,BRONX,10457.0,Short Term,36005.0,True,56.0,36.0,POINT (-73.892168 40.85277),40.85277,-73.892168,0.6428571428571429
53147,330080,2021/01/01,NY,330080,LINCOLN MEDICAL & MENTAL HEALTH CENTER,234 EAST 149TH STREET,BRONX,10451.0,Short Term,36005.0,True,67.0,39.0,POINT (-73.924072 40.817681),40.817681,-73.924072,0.582089552238806
53148,332006,2021/01/01,NY,332006,CALVARY HOSPITAL INC,1740 - 70 EASTCHESTER R0AD,BRONX,10461.0,Long Term,36005.0,True,0.0,0.0,POINT (-73.84404860297437 40.84823562129306),40.84823562129306,-73.84404860297437,
53149,330385,2021/01/01,NY,330385,NORTH CENTRAL BRONX HOSPITAL,3424 KOSSUTH AVENUE & 210TH STREET,BRONX,10467.0,Short Term,36005.0,True,54.0,19.3,POINT (-73.88108250297297 40.88078958599722),40.88078958599722,-73.88108250297297,0.3574074074074074
53150,330009,2021/01/01,NY,330009,BRONXCARE HOSPITAL CENTER,1276 FULTON AVENUE,BRONX,10456.0,Short Term,36005.0,True,77.0,46.6,POINT (-73.903756 40.83175),40.83175,-73.903756,0.6051948051948052
53151,330059,2021/01/01,NY,330059,MONTEFIORE MEDICAL CENTER,111 EAST 210TH STREET,BRONX,10467.0,Short Term,36005.0,True,215.0,200.1,POINT (-73.879975 40.879777),40.879777,-73.879975,0.9306976744186046
53185,330194,2021/01/01,NY,330194,MAIMONIDES MEDICAL CENTER,4802 TENTH AVENUE,BROOKLYN,11219.0,Short Term,36047.0,True,80.0,59.9,POINT (-73.998668 40.63908),40.63908,-73.998668,0.74875
53186,330233,2021/01/01,NY,330233,BROOKDALE HOSPITAL MEDICAL CENTER,1 BROOKDALE PLAZA,BROOKLYN,11212.0,Short Term,36047.0,True,48.9,39.4,POINT (-73.91275 40.6545),40.6545,-73.91275,0.8057259713701431
53187,330201,2021/01/01,NY,330201,KINGSBROOK JEWISH MEDICAL CENTER,585 SCHENECTADY AVENUE,BROOKLYN,11203.0,Short Term,36047.0,True,20.0,15.6,POINT (-73.934072 40.658929),40.658929,-73.934072,0.78
53188,330396,2021/01/01,NY,330396,WOODHULL MEDICAL & MENTAL HEALTH CENTER,760 BROADWAY,BROOKLYN,11206.0,Short Term,36047.0,True,28.0,20.7,POINT (-73.941557 40.700512),40.700512,-73.941557,0.7392857142857142
53189,330019,2021/01/01,NY,330019,"NEW YORK COMMUNITY HOSPITAL OF BROOKLYN, INC.",2525 KINGS HIGHWAY,BROOKLYN,11229.0,Short Term,36047.0,True,19.3,16.4,POINT (-73.948321 40.613783),40.613783,-73.948321,0.849740932642487
53190,330196,2021/01/01,NY,330196,CONEY ISLAND HOSPITAL CENTER,2601 OCEAN PARKWAY,BROOKLYN,11235.0,Short Term,36047.0,True,46.4,36.9,POINT (-73.966285 40.58494),40.58494,-73.966285,0.7952586206896551
53191,330397,2021/01/01,NY,330397,INTERFAITH MEDICAL CENTER,1545 ATLANTIC AVENUE,BROOKLYN,11213.0,Short Term,36047.0,True,17.9,10.3,POINT (-73.937154 40.677866),40.677866,-73.937154,0.5754189944134079
53192,330350,2021/01/01,NY,330350,SUNY HEALTH SCIENCE CENTER AT BROOKLYN UNIVERSITY,445 LENOX ROAD,BROOKLYN,11203.0,Short Term,36047.0,True,60.0,21.0,POINT (-73.94516 40.654457),40.654457,-73.94516,0.35
53193,330221,2021/01/01,NY,330221,WYCKOFF HEIGHTS MEDICAL CENTER,374 STOCKHOLM STREET,BROOKLYN,11237.0,Short Term,36047.0,True,18.3,14.0,POINT (-73.917648 40.704699),40.704699,-73.917648,0.7650273224043715
53194,330236,2021/01/01,NY,330236,NEW YORK-PRESBYTERIAN BROOKLYN METHODIST HOSPITAL,506 SIXTH STREET,BROOKLYN,11215.0,Short Term,36047.0,True,70.0,54.9,POINT (-73.979141 40.668263),40.668263,-73.979141,0.7842857142857143
53195,330202,2021/01/01,NY,330202,KINGS COUNTY HOSPITAL CENTER,451 CLARKSON AVENUE,BROOKLYN,11203.0,Short Term,36047.0,True,54.0,43.4,POINT (-73.944039 40.655773),40.655773,-73.944039,0.8037037037037037
53196,330056,2021/01/01,NY,330056,BROOKLYN HOSPITAL CENTER - DOWNTOWN CAMPUS,121 DEKALB AVENUE,BROOKLYN,11201.0,Short Term,36047.0,True,24.0,13.9,POINT (-73.9774 40.689785),40.689785,-73.9774,0.5791666666666667
53216,330169,2021/01/01,NY,330169,MOUNT SINAI BETH ISRAEL,FIRST AVENUE AT 16TH STREET,NEW YORK,10003.0,Short Term,36061.0,True,59.9,42.1,POINT (-73.9816 40.732665),40.732665,-73.9816,0.7028380634390652
53217,330024,2021/01/01,NY,330024,MOUNT SINAI HOSPITAL,ONE GUSTAVE L LEVY PLACE,NEW YORK,10029.0,Short Term,36061.0,True,256.9,121.3,POINT (-73.95293294771362 40.79025685781565),40.79025685781565,-73.95293294771362,0.4721681588166602
53218,330214,2021/01/01,NY,330214,NYU LANGONE HOSPITALS,550 FIRST AVENUE,NEW YORK,10016.0,Short Term,36061.0,True,390.0,277.4,POINT (-73.974661 40.74226),40.74226,-73.974661,0.7112820512820512
53219,330410,2021/01/01,NY,330410,TERENCE CARDINAL COOKE HEALTH CARE CENTER,1249 FIFTH AVENUE,NEW YORK,10029.0,Short Term,36061.0,True,0.0,0.0,POINT (-73.951083 40.794298),40.794298,-73.951083,
53220,330101,2021/01/01,NY,330101,NEW YORK-PRESBYTERIAN HOSPITAL,525 EAST 68TH STREET,NEW YORK,10065.0,Short Term,36061.0,True,504.3,427.4,POINT (-73.954335 40.76415),40.76415,-73.954335,0.8475114019432877
53221,330204,2021/01/01,NY,330204,BELLEVUE HOSPITAL CENTER,462 FIRST AVENUE,NEW YORK,10016.0,Short Term,36061.0,True,106.0,78.3,POINT (-73.97625 40.740079),40.740079,-73.97625,0.7386792452830189
53222,330199,2021/01/01,NY,330199,METROPOLITAN HOSPITAL CENTER,1901 FIRST AVENUE,NEW YORK,10029.0,Short Term,36061.0,True,23.0,13.1,POINT (-73.943636 40.78472),40.78472,-73.943636,0.5695652173913043
53223,330240,2021/01/01,NY,330240,HARLEM HOSPITAL CENTER,506 LENOX AVENUE,NEW YORK,10037.0,Short Term,36061.0,True,30.1,27.4,POINT (-73.940495 40.814482),40.814482,-73.940495,0.910299003322259
53224,330046,2021/01/01,NY,330046,MOUNT SINAI WEST,1000 TENTH AVENUE,NEW YORK,10019.0,Short Term,36061.0,True,68.9,63.1,POINT (-73.987846 40.770129),40.770129,-73.987846,0.9158200290275761
53225,330100,2021/01/01,NY,330100,N Y EYE AND EAR INFIRMARY,230 SECOND AVE,NEW YORK,10003.0,Short Term,36061.0,True,0.0,0.0,POINT (-73.984816 40.732559),40.732559,-73.984816,
53226,330119,2021/01/01,NY,330119,LENOX HILL HOSPITAL,100 EAST 77TH STREET,NEW YORK,10021.0,Short Term,36061.0,True,111.0,42.3,POINT (-73.960611 40.773964),40.773964,-73.960611,0.3810810810810811
53227,330154,2021/01/01,NY,330154,MEMORIAL HOSPITAL FOR CANCER AND ALLIED DISEASES,1275 YORK AVENUE,NEW YORK,10065.0,Short Term,36061.0,True,40.0,22.4,POINT (-73.955801 40.764044),40.764044,-73.955801,0.5599999999999999
53228,332008,2021/01/01,NY,332008,HENRY J CARTER SPECIALTY HOSPITAL,1752 PARK AVENUE,NEW YORK,10035.0,Long Term,36061.0,True,0.0,0.0,POINT (-73.940812 40.80287),40.80287,-73.940812,
53250,330055,2021/01/01,NY,330055,NEW YORK-PRESBYTERIAN/QUEENS,56-45 MAIN STREET,FLUSHING,11355.0,Short Term,36081.0,True,113.0,44.7,POINT (-73.82525511455265 40.748180495849915),40.748180495849915,-73.82525511455265,0.39557522123893807
53251,330128,2021/01/01,NY,330128,ELMHURST HOSPITAL CENTER,79-01 BROADWAY,ELMHURST,11373.0,Short Term,36081.0,True,83.0,37.1,POINT (-73.88598 40.74434),40.74434,-73.88598,0.44698795180722894
53252,330193,2021/01/01,NY,330193,FLUSHING HOSPITAL MEDICAL CENTER,45TH AVENUE AND PARSONS BOULEVARD,FLUSHING,11355.0,Short Term,36081.0,True,36.0,25.6,POINT (-73.815645 40.755636),40.755636,-73.815645,0.7111111111111111
53253,330231,2021/01/01,NY,330231,QUEENS HOSPITAL CENTER,82-68 164TH STREET,JAMAICA,11432.0,Short Term,36081.0,True,53.0,30.7,POINT (-73.803431 40.71698),40.71698,-73.803431,0.5792452830188679
53254,330395,2021/01/01,NY,330395,ST JOHN'S EPISCOPAL HOSPITAL AT SOUTH SHORE,327 BEACH 19TH STREET,FAR ROCKAWAY,11691.0,Short Term,36081.0,True,16.7,13.7,POINT (-73.75268 40.598675),40.598675,-73.75268,0.8203592814371258
53255,330014,2021/01/01,NY,330014,JAMAICA HOSPITAL MEDICAL CENTER,89TH AVENUE AND VAN WYCK EXPRESSWAY,JAMAICA,11418.0,Short Term,36081.0,True,47.0,39.0,POINT (-73.816302 40.701412),40.701412,-73.816302,0.8297872340425532
53258,330028,2021/01/01,NY,330028,RICHMOND UNIVERSITY MEDICAL CENTER,355 BARD AVENUE,STATEN ISLAND,10310.0,Short Term,36085.0,True,73.0,31.1,POINT (-74.106693 40.63551),40.63551,-74.106693,0.426027397260274
53259,330160,2021/01/01,NY,330160,STATEN ISLAND UNIVERSITY HOSPITAL,475 SEAVIEW AVENUE,STATEN ISLAND,10305.0,Short Term,36085.0,True,108.1,101.0,POINT (-74.087013 40.584082),40.584082,-74.087013,0.9343200740055505
58167,332006,2020/12/25,NY,332006,CALVARY HOSPITAL INC,1740 - 70 EASTCHESTER R0AD,BRONX,10461.0,Long Term,36005.0,True,0.0,0.0,POINT (-73.84404860297437 40.84823562129306),40.84823562129306,-73.84404860297437,
58168,330080,2020/12/25,NY,330080,LINCOLN MEDICAL & MENTAL HEALTH CENTER,234 EAST 149TH STREET,BRONX,10451.0,Short Term,36005.0,True,53.6,40.0,POINT (-73.924072 40.817681),40.817681,-73.924072,0.7462686567164178
58169,330059,2020/12/25,NY,330059,MONTEFIORE MEDICAL CENTER,111 EAST 210TH STREET,BRONX,10467.0,Short Term,36005.0,True,215.0,169.9,POINT (-73.879975 40.879777),40.879777,-73.879975,0.7902325581395349
58170,330127,2020/12/25,NY,330127,JACOBI MEDICAL CENTER,1400 PELHAM PARKWAY SOUTH,BRONX,10461.0,Short Term,36005.0,True,160.3,69.0,POINT (-73.84721 40.857455),40.857455,-73.84721,0.4304429195258889
58171,330399,2020/12/25,NY,330399,ST BARNABAS HOSPITAL,4422 THIRD AVENUE,BRONX,10457.0,Short Term,36005.0,True,56.0,34.6,POINT (-73.892168 40.85277),40.85277,-73.892168,0.6178571428571429
58172,330009,2020/12/25,NY,330009,BRONXCARE HOSPITAL CENTER,1276 FULTON AVENUE,BRONX,10456.0,Short Term,36005.0,True,77.0,45.3,POINT (-73.903756 40.83175),40.83175,-73.903756,0.5883116883116882
58173,330385,2020/12/25,NY,330385,NORTH CENTRAL BRONX HOSPITAL,3424 KOSSUTH AVENUE & 210TH STREET,BRONX,10467.0,Short Term,36005.0,True,89.9,19.4,POINT (-73.88108250297297 40.88078958599722),40.88078958599722,-73.88108250297297,0.2157953281423804
58207,330201,2020/12/25,NY,330201,KINGSBROOK JEWISH MEDICAL CENTER,585 SCHENECTADY AVENUE,BROOKLYN,11203.0,Short Term,36047.0,True,20.0,18.4,POINT (-73.934072 40.658929),40.658929,-73.934072,0.9199999999999999
58208,330350,2020/12/25,NY,330350,SUNY HEALTH SCIENCE CENTER AT BROOKLYN UNIVERSITY,445 LENOX ROAD,BROOKLYN,11203.0,Short Term,36047.0,True,60.0,20.9,POINT (-73.94516 40.654457),40.654457,-73.94516,0.34833333333333333
58209,330056,2020/12/25,NY,330056,BROOKLYN HOSPITAL CENTER - DOWNTOWN CAMPUS,121 DEKALB AVENUE,BROOKLYN,11201.0,Short Term,36047.0,True,24.0,13.0,POINT (-73.9774 40.689785),40.689785,-73.9774,0.5416666666666666
58210,330236,2020/12/25,NY,330236,NEW YORK-PRESBYTERIAN BROOKLYN METHODIST HOSPITAL,506 SIXTH STREET,BROOKLYN,11215.0,Short Term,36047.0,True,70.0,48.6,POINT (-73.979141 40.668263),40.668263,-73.979141,0.6942857142857143
58211,330233,2020/12/25,NY,330233,BROOKDALE HOSPITAL MEDICAL CENTER,1 BROOKDALE PLAZA,BROOKLYN,11212.0,Short Term,36047.0,True,49.6,41.4,POINT (-73.91275 40.6545),40.6545,-73.91275,0.8346774193548386
58212,330019,2020/12/25,NY,330019,"NEW YORK COMMUNITY HOSPITAL OF BROOKLYN, INC.",2525 KINGS HIGHWAY,BROOKLYN,11229.0,Short Term,36047.0,True,19.0,16.7,POINT (-73.948321 40.613783),40.613783,-73.948321,0.8789473684210526
58213,330221,2020/12/25,NY,330221,WYCKOFF HEIGHTS MEDICAL CENTER,374 STOCKHOLM STREET,BROOKLYN,11237.0,Short Term,36047.0,True,16.0,14.4,POINT (-73.917648 40.704699),40.704699,-73.917648,0.9
58214,330396,2020/12/25,NY,330396,WOODHULL MEDICAL & MENTAL HEALTH CENTER,760 BROADWAY,BROOKLYN,11206.0,Short Term,36047.0,True,29.0,24.9,POINT (-73.941557 40.700512),40.700512,-73.941557,0.8586206896551724
58215,330194,2020/12/25,NY,330194,MAIMONIDES MEDICAL CENTER,4802 TENTH AVENUE,BROOKLYN,11219.0,Short Term,36047.0,True,80.0,54.1,POINT (-73.998668 40.63908),40.63908,-73.998668,0.67625
58216,330196,2020/12/25,NY,330196,CONEY ISLAND HOSPITAL CENTER,2601 OCEAN PARKWAY,BROOKLYN,11235.0,Short Term,36047.0,True,55.4,39.6,POINT (-73.966285 40.58494),40.58494,-73.966285,0.7148014440433214
58217,330397,2020/12/25,NY,330397,INTERFAITH MEDICAL CENTER,1545 ATLANTIC AVENUE,BROOKLYN,11213.0,Short Term,36047.0,True,13.0,11.3,POINT (-73.937154 40.677866),40.677866,-73.937154,0.8692307692307693
58218,330202,2020/12/25,NY,330202,KINGS COUNTY HOSPITAL CENTER,451 CLARKSON AVENUE,BROOKLYN,11203.0,Short Term,36047.0,True,60.4,42.3,POINT (-73.944039 40.655773),40.655773,-73.944039,0.7003311258278145
58237,330169,2020/12/25,NY,330169,MOUNT SINAI BETH ISRAEL,FIRST AVENUE AT 16TH STREET,NEW YORK,10003.0,Short Term,36061.0,True,49.6,36.6,POINT (-73.9816 40.732665),40.732665,-73.9816,0.7379032258064516
58238,330100,2020/12/25,NY,330100,N Y EYE AND EAR INFIRMARY,230 SECOND AVE,NEW YORK,10003.0,Short Term,36061.0,True,0.0,0.0,POINT (-73.984816 40.732559),40.732559,-73.984816,
58240,330154,2020/12/25,NY,330154,MEMORIAL HOSPITAL FOR CANCER AND ALLIED DISEASES,1275 YORK AVENUE,NEW YORK,10065.0,Short Term,36061.0,True,40.0,27.6,POINT (-73.955801 40.764044),40.764044,-73.955801,0.6900000000000001
58241,330240,2020/12/25,NY,330240,HARLEM HOSPITAL CENTER,506 LENOX AVENUE,NEW YORK,10037.0,Short Term,36061.0,True,27.7,28.0,POINT (-73.940495 40.814482),40.814482,-73.940495,1.0108303249097472
58242,330204,2020/12/25,NY,330204,BELLEVUE HOSPITAL CENTER,462 FIRST AVENUE,NEW YORK,10016.0,Short Term,36061.0,True,87.1,68.9,POINT (-73.97625 40.740079),40.740079,-73.97625,0.791044776119403
58243,330119,2020/12/25,NY,330119,LENOX HILL HOSPITAL,100 EAST 77TH STREET,NEW YORK,10021.0,Short Term,36061.0,True,111.0,44.1,POINT (-73.960611 40.773964),40.773964,-73.960611,0.3972972972972973
58244,330024,2020/12/25,NY,330024,MOUNT SINAI HOSPITAL,ONE GUSTAVE L LEVY PLACE,NEW YORK,10029.0,Short Term,36061.0,True,255.3,119.6,POINT (-73.95293294771362 40.79025685781565),40.79025685781565,-73.95293294771362,0.4684684684684684
58245,330410,2020/12/25,NY,330410,TERENCE CARDINAL COOKE HEALTH CARE CENTER,1249 FIFTH AVENUE,NEW YORK,10029.0,Short Term,36061.0,True,0.0,0.0,POINT (-73.951083 40.794298),40.794298,-73.951083,
58246,330199,2020/12/25,NY,330199,METROPOLITAN HOSPITAL CENTER,1901 FIRST AVENUE,NEW YORK,10029.0,Short Term,36061.0,True,18.6,16.0,POINT (-73.943636 40.78472),40.78472,-73.943636,0.8602150537634408
58247,330101,2020/12/25,NY,330101,NEW YORK-PRESBYTERIAN HOSPITAL,525 EAST 68TH STREET,NEW YORK,10065.0,Short Term,36061.0,True,514.0,412.7,POINT (-73.954335 40.76415),40.76415,-73.954335,0.8029182879377431
58248,330214,2020/12/25,NY,330214,NYU LANGONE HOSPITALS,550 FIRST AVENUE,NEW YORK,10016.0,Short Term,36061.0,True,390.0,255.3,POINT (-73.974661 40.74226),40.74226,-73.974661,0.6546153846153846
58249,332008,2020/12/25,NY,332008,HENRY J CARTER SPECIALTY HOSPITAL,1752 PARK AVENUE,NEW YORK,10035.0,Long Term,36061.0,True,0.0,0.0,POINT (-73.940812 40.80287),40.80287,-73.940812,
58250,330046,2020/12/25,NY,330046,MOUNT SINAI WEST,1000 TENTH AVENUE,NEW YORK,10019.0,Short Term,36061.0,True,60.1,50.1,POINT (-73.987846 40.770129),40.770129,-73.987846,0.8336106489184693
58272,330014,2020/12/25,NY,330014,JAMAICA HOSPITAL MEDICAL CENTER,89TH AVENUE AND VAN WYCK EXPRESSWAY,JAMAICA,11418.0,Short Term,36081.0,True,47.0,33.3,POINT (-73.816302 40.701412),40.701412,-73.816302,0.7085106382978723
58273,330128,2020/12/25,NY,330128,ELMHURST HOSPITAL CENTER,79-01 BROADWAY,ELMHURST,11373.0,Short Term,36081.0,True,164.7,35.0,POINT (-73.88598 40.74434),40.74434,-73.88598,0.2125075895567699
58274,330395,2020/12/25,NY,330395,ST JOHN'S EPISCOPAL HOSPITAL AT SOUTH SHORE,327 BEACH 19TH STREET,FAR ROCKAWAY,11691.0,Short Term,36081.0,True,16.0,14.3,POINT (-73.75268 40.598675),40.598675,-73.75268,0.89375
58275,330055,2020/12/25,NY,330055,NEW YORK-PRESBYTERIAN/QUEENS,56-45 MAIN STREET,FLUSHING,11355.0,Short Term,36081.0,True,113.0,45.0,POINT (-73.82525511455265 40.748180495849915),40.748180495849915,-73.82525511455265,0.39823008849557523
58277,330231,2020/12/25,NY,330231,QUEENS HOSPITAL CENTER,82-68 164TH STREET,JAMAICA,11432.0,Short Term,36081.0,True,30.9,30.6,POINT (-73.803431 40.71698),40.71698,-73.803431,0.9902912621359224
58278,330193,2020/12/25,NY,330193,FLUSHING HOSPITAL MEDICAL CENTER,45TH AVENUE AND PARSONS BOULEVARD,FLUSHING,11355.0,Short Term,36081.0,True,36.0,22.0,POINT (-73.815645 40.755636),40.755636,-73.815645,0.6111111111111112
58280,330028,2020/12/25,NY,330028,RICHMOND UNIVERSITY MEDICAL CENTER,355 BARD AVENUE,STATEN ISLAND,10310.0,Short Term,36085.0,True,73.0,30.1,POINT (-74.106693 40.63551),40.63551,-74.106693,0.4123287671232877
58281,330160,2020/12/25,NY,330160,STATEN ISLAND UNIVERSITY HOSPITAL,475 SEAVIEW AVENUE,STATEN ISLAND,10305.0,Short Term,36085.0,True,107.0,98.9,POINT (-74.087013 40.584082),40.584082,-74.087013,0.9242990654205608
63187,330080,2020/12/18,NY,330080,LINCOLN MEDICAL & MENTAL HEALTH CENTER,234 EAST 149TH STREET,BRONX,10451.0,Short Term,36005.0,True,52.7,37.6,POINT (-73.924072 40.817681),40.817681,-73.924072,0.713472485768501
63188,330385,2020/12/18,NY,330385,NORTH CENTRAL BRONX HOSPITAL,3424 KOSSUTH AVENUE & 210TH STREET,BRONX,10467.0,Short Term,36005.0,True,126.0,15.0,POINT (-73.88108250297297 40.88078958599722),40.88078958599722,-73.88108250297297,0.11904761904761904
63189,330127,2020/12/18,NY,330127,JACOBI MEDICAL CENTER,1400 PELHAM PARKWAY SOUTH,BRONX,10461.0,Short Term,36005.0,True,210.0,70.3,POINT (-73.84721 40.857455),40.857455,-73.84721,0.33476190476190476
63190,330399,2020/12/18,NY,330399,ST BARNABAS HOSPITAL,4422 THIRD AVENUE,BRONX,10457.0,Short Term,36005.0,True,56.0,35.4,POINT (-73.892168 40.85277),40.85277,-73.892168,0.6321428571428571
63191,330009,2020/12/18,NY,330009,BRONXCARE HOSPITAL CENTER,1276 FULTON AVENUE,BRONX,10456.0,Short Term,36005.0,True,77.0,43.1,POINT (-73.903756 40.83175),40.83175,-73.903756,0.5597402597402598
63192,332006,2020/12/18,NY,332006,CALVARY HOSPITAL INC,1740 - 70 EASTCHESTER R0AD,BRONX,10461.0,Long Term,36005.0,True,0.0,0.0,POINT (-73.84404860297437 40.84823562129306),40.84823562129306,-73.84404860297437,
63193,330059,2020/12/18,NY,330059,MONTEFIORE MEDICAL CENTER,111 EAST 210TH STREET,BRONX,10467.0,Short Term,36005.0,True,220.3,175.7,POINT (-73.879975 40.879777),40.879777,-73.879975,0.7975487970948706
63227,330056,2020/12/18,NY,330056,BROOKLYN HOSPITAL CENTER - DOWNTOWN CAMPUS,121 DEKALB AVENUE,BROOKLYN,11201.0,Short Term,36047.0,True,24.0,16.6,POINT (-73.9774 40.689785),40.689785,-73.9774,0.6916666666666668
63228,330236,2020/12/18,NY,330236,NEW YORK-PRESBYTERIAN BROOKLYN METHODIST HOSPITAL,506 SIXTH STREET,BROOKLYN,11215.0,Short Term,36047.0,True,70.0,49.9,POINT (-73.979141 40.668263),40.668263,-73.979141,0.7128571428571429
63229,330396,2020/12/18,NY,330396,WOODHULL MEDICAL & MENTAL HEALTH CENTER,760 BROADWAY,BROOKLYN,11206.0,Short Term,36047.0,True,29.0,24.4,POINT (-73.941557 40.700512),40.700512,-73.941557,0.8413793103448275
63230,330397,2020/12/18,NY,330397,INTERFAITH MEDICAL CENTER,1545 ATLANTIC AVENUE,BROOKLYN,11213.0,Short Term,36047.0,True,13.0,8.7,POINT (-73.937154 40.677866),40.677866,-73.937154,0.6692307692307692
63231,330201,2020/12/18,NY,330201,KINGSBROOK JEWISH MEDICAL CENTER,585 SCHENECTADY AVENUE,BROOKLYN,11203.0,Short Term,36047.0,True,10.0,9.4,POINT (-73.934072 40.658929),40.658929,-73.934072,0.9400000000000001
63232,330350,2020/12/18,NY,330350,SUNY HEALTH SCIENCE CENTER AT BROOKLYN UNIVERSITY,445 LENOX ROAD,BROOKLYN,11203.0,Short Term,36047.0,True,60.0,19.7,POINT (-73.94516 40.654457),40.654457,-73.94516,0.3283333333333333
63233,330233,2020/12/18,NY,330233,BROOKDALE HOSPITAL MEDICAL CENTER,1 BROOKDALE PLAZA,BROOKLYN,11212.0,Short Term,36047.0,True,49.6,41.3,POINT (-73.91275 40.6545),40.6545,-73.91275,0.8326612903225805
63234,330202,2020/12/18,NY,330202,KINGS COUNTY HOSPITAL CENTER,451 CLARKSON AVENUE,BROOKLYN,11203.0,Short Term,36047.0,True,62.0,44.1,POINT (-73.944039 40.655773),40.655773,-73.944039,0.7112903225806452
63235,330019,2020/12/18,NY,330019,"NEW YORK COMMUNITY HOSPITAL OF BROOKLYN, INC.",2525 KINGS HIGHWAY,BROOKLYN,11229.0,Short Term,36047.0,True,19.0,13.0,POINT (-73.948321 40.613783),40.613783,-73.948321,0.6842105263157895
63236,330196,2020/12/18,NY,330196,CONEY ISLAND HOSPITAL CENTER,2601 OCEAN PARKWAY,BROOKLYN,11235.0,Short Term,36047.0,True,59.9,37.4,POINT (-73.966285 40.58494),40.58494,-73.966285,0.6243739565943238
63237,330194,2020/12/18,NY,330194,MAIMONIDES MEDICAL CENTER,4802 TENTH AVENUE,BROOKLYN,11219.0,Short Term,36047.0,True,77.7,50.7,POINT (-73.998668 40.63908),40.63908,-73.998668,0.6525096525096525
63238,330221,2020/12/18,NY,330221,WYCKOFF HEIGHTS MEDICAL CENTER,374 STOCKHOLM STREET,BROOKLYN,11237.0,Short Term,36047.0,True,16.0,12.7,POINT (-73.917648 40.704699),40.704699,-73.917648,0.79375
63256,330119,2020/12/18,NY,330119,LENOX HILL HOSPITAL,100 EAST 77TH STREET,NEW YORK,10021.0,Short Term,36061.0,True,111.0,46.7,POINT (-73.960611 40.773964),40.773964,-73.960611,0.42072072072072075
63257,330154,2020/12/18,NY,330154,MEMORIAL HOSPITAL FOR CANCER AND ALLIED DISEASES,1275 YORK AVENUE,NEW YORK,10065.0,Short Term,36061.0,True,40.0,29.9,POINT (-73.955801 40.764044),40.764044,-73.955801,0.7474999999999999
63258,330101,2020/12/18,NY,330101,NEW YORK-PRESBYTERIAN HOSPITAL,525 EAST 68TH STREET,NEW YORK,10065.0,Short Term,36061.0,True,514.0,404.6,POINT (-73.954335 40.76415),40.76415,-73.954335,0.78715953307393
63259,330240,2020/12/18,NY,330240,HARLEM HOSPITAL CENTER,506 LENOX AVENUE,NEW YORK,10037.0,Short Term,36061.0,True,28.0,26.4,POINT (-73.940495 40.814482),40.814482,-73.940495,0.9428571428571428
63260,330410,2020/12/18,NY,330410,TERENCE CARDINAL COOKE HEALTH CARE CENTER,1249 FIFTH AVENUE,NEW YORK,10029.0,Short Term,36061.0,True,0.0,0.0,POINT (-73.951083 40.794298),40.794298,-73.951083,
63261,330100,2020/12/18,NY,330100,N Y EYE AND EAR INFIRMARY,230 SECOND AVE,NEW YORK,10003.0,Short Term,36061.0,True,0.0,0.0,POINT (-73.984816 40.732559),40.732559,-73.984816,
63262,330169,2020/12/18,NY,330169,MOUNT SINAI BETH ISRAEL,FIRST AVENUE AT 16TH STREET,NEW YORK,10003.0,Short Term,36061.0,True,45.0,38.4,POINT (-73.9816 40.732665),40.732665,-73.9816,0.8533333333333333
63263,330204,2020/12/18,NY,330204,BELLEVUE HOSPITAL CENTER,462 FIRST AVENUE,NEW YORK,10016.0,Short Term,36061.0,True,84.0,71.4,POINT (-73.97625 40.740079),40.740079,-73.97625,0.8500000000000001
63264,330046,2020/12/18,NY,330046,MOUNT SINAI WEST,1000 TENTH AVENUE,NEW YORK,10019.0,Short Term,36061.0,True,67.1,61.3,POINT (-73.987846 40.770129),40.770129,-73.987846,0.9135618479880775
63265,330199,2020/12/18,NY,330199,METROPOLITAN HOSPITAL CENTER,1901 FIRST AVENUE,NEW YORK,10029.0,Short Term,36061.0,True,15.6,13.6,POINT (-73.943636 40.78472),40.78472,-73.943636,0.8717948717948718
63266,330214,2020/12/18,NY,330214,NYU LANGONE HOSPITALS,550 FIRST AVENUE,NEW YORK,10016.0,Short Term,36061.0,True,390.0,277.7,POINT (-73.974661 40.74226),40.74226,-73.974661,0.712051282051282
63267,330024,2020/12/18,NY,330024,MOUNT SINAI HOSPITAL,ONE GUSTAVE L LEVY PLACE,NEW YORK,10029.0,Short Term,36061.0,True,254.4,128.0,POINT (-73.95293294771362 40.79025685781565),40.79025685781565,-73.95293294771362,0.5031446540880503
63268,332008,2020/12/18,NY,332008,HENRY J CARTER SPECIALTY HOSPITAL,1752 PARK AVENUE,NEW YORK,10035.0,Long Term,36061.0,True,0.0,0.0,POINT (-73.940812 40.80287),40.80287,-73.940812,
63291,330193,2020/12/18,NY,330193,FLUSHING HOSPITAL MEDICAL CENTER,45TH AVENUE AND PARSONS BOULEVARD,FLUSHING,11355.0,Short Term,36081.0,True,36.0,26.9,POINT (-73.815645 40.755636),40.755636,-73.815645,0.7472222222222222
63292,330231,2020/12/18,NY,330231,QUEENS HOSPITAL CENTER,82-68 164TH STREET,JAMAICA,11432.0,Short Term,36081.0,True,27.9,28.7,POINT (-73.803431 40.71698),40.71698,-73.803431,1.028673835125448
63293,330128,2020/12/18,NY,330128,ELMHURST HOSPITAL CENTER,79-01 BROADWAY,ELMHURST,11373.0,Short Term,36081.0,True,235.4,36.7,POINT (-73.88598 40.74434),40.74434,-73.88598,0.15590484282073067
63295,330014,2020/12/18,NY,330014,JAMAICA HOSPITAL MEDICAL CENTER,89TH AVENUE AND VAN WYCK EXPRESSWAY,JAMAICA,11418.0,Short Term,36081.0,True,43.6,32.4,POINT (-73.816302 40.701412),40.701412,-73.816302,0.7431192660550459
63296,330395,2020/12/18,NY,330395,ST JOHN'S EPISCOPAL HOSPITAL AT SOUTH SHORE,327 BEACH 19TH STREET,FAR ROCKAWAY,11691.0,Short Term,36081.0,True,18.9,12.0,POINT (-73.75268 40.598675),40.598675,-73.75268,0.634920634920635
63297,330055,2020/12/18,NY,330055,NEW YORK-PRESBYTERIAN/QUEENS,56-45 MAIN STREET,FLUSHING,11355.0,Short Term,36081.0,True,113.0,45.9,POINT (-73.82525511455265 40.748180495849915),40.748180495849915,-73.82525511455265,0.4061946902654867
63299,330160,2020/12/18,NY,330160,STATEN ISLAND UNIVERSITY HOSPITAL,475 SEAVIEW AVENUE,STATEN ISLAND,10305.0,Short Term,36085.0,True,107.9,101.0,POINT (-74.087013 40.584082),40.584082,-74.087013,0.9360518999073215
63300,330028,2020/12/18,NY,330028,RICHMOND UNIVERSITY MEDICAL CENTER,355 BARD AVENUE,STATEN ISLAND,10310.0,Short Term,36085.0,True,73.0,34.6,POINT (-74.106693 40.63551),40.63551,-74.106693,0.473972602739726
